{"type":"FeatureCollection","features":[{"type":"Feature","properties":{"cve_ent":"25","cve_mun":"001","cvegeo":"25001","nombre":"Ahome"},"geometry":{"type":"Polygon","coordinates":[[[-108.94984,26.3922],[-108.93152,26.377],[-108.93286,26.30668],[-108.92952,26.30696],[-108.9277,26.30215],[-108.94996,26.28961],[-108.94711,26.30577],[-108.95243,26.30206],[-108.95213,26.30551],[-108.95816,26.30414],[-108.96324,26.28621],[-108.99314,26.2932],[-109.02666,26.27509],[-109.02421,26.27175],[-109.02669,26.2723],[-109.02833,26.26689],[-109.0321,26.26793],[-109.03821,26.24655],[-109.04258,26.24743],[-109.03194,26.23785],[-109.01554,26.23433],[-109.0089,26.23053],[-109.00791,26.22579],[-108.99229,26.22117],[-109.01638,26.1361],[-109.00245,26.13292],[-108.99972,26.12762],[-108.98702,26.12355],[-108.98262,26.11534],[-108.97231,26.10906],[-108.96481,26.11219],[-108.97323,26.10265],[-108.95811,26.09383],[-109.01786,26.03467],[-108.98782,26.00461],[-108.99649,25.99647],[-108.98815,25.97328],[-108.99602,25.97135],[-108.99589,25.96422],[-108.99842,25.96411],[-109.0092,25.94453],[-108.99246,25.93123],[-108.97389,25.92636],[-108.98395,25.91839],[-108.97631,25.87355],[-108.98032,25.86755],[-108.96444,25.85823],[-108.96626,25.85547],[-108.96146,25.85001],[-108.95105,25.87752],[-108.94301,25.87303],[-108.9403,25.87682],[-108.91117,25.85857],[-108.90644,25.86659],[-108.92322,25.87416],[-108.91512,25.89415],[-108.89551,25.88295],[-108.89852,25.87785],[-108.85462,25.84013],[-108.86664,25.82033],[-108.85908,25.81665],[-108.85369,25.83931],[-108.77827,25.87227],[-108.77716,25.86822],[-108.7699,25.86871],[-108.75788,25.83087],[-108.76607,25.82656],[-108.77216,25.81805],[-108.77491,25.81952],[-108.77953,25.81548],[-108.79435,25.79257],[-108.80751,25.79963],[-108.8111,25.79748],[-108.83281,25.77403],[-108.82678,25.76797],[-108.82936,25.76398],[-108.83199,25.76539],[-108.84001,25.75225],[-108.85272,25.75109],[-108.8644,25.74035],[-108.85381,25.73916],[-108.86975,25.71618],[-108.86318,25.62299],[-108.85887,25.62267],[-108.84513,25.59634],[-108.84162,25.58779],[-108.84599,25.58586],[-108.8416,25.57976],[-108.84915,25.5815],[-108.84769,25.58852],[-108.85435,25.59119],[-108.85243,25.58165],[-108.86009,25.5734],[-108.89193,25.51302],[-108.88438,25.50874],[-108.88658,25.49567],[-108.89646,25.48019],[-108.90731,25.44751],[-109.02655,25.44438],[-109.0364,25.46218],[-109.04349,25.46277],[-109.06647,25.48572],[-109.08068,25.49275],[-109.08082,25.49981],[-109.08701,25.51133],[-109.11922,25.545],[-109.16174,25.56177],[-109.16754,25.5748],[-109.183,25.59508],[-109.21916,25.62283],[-109.25149,25.63516],[-109.29789,25.64539],[-109.33288,25.64652],[-109.37117,25.63961],[-109.3971,25.6385],[-109.39215,25.64282],[-109.3905,25.6696],[-109.39249,25.67707],[-109.39658,25.67796],[-109.39971,25.6854],[-109.40502,25.73126],[-109.4116,25.75892],[-109.43228,25.80595],[-109.42194,25.85266],[-109.42156,25.87073],[-109.42486,25.89595],[-109.43414,25.91189],[-109.4437,25.94186],[-109.44385,25.95941],[-109.43082,26.00715],[-109.41093,26.05063],[-109.38883,26.08743],[-109.38528,26.08812],[-109.36869,26.10743],[-109.31738,26.18973],[-109.29895,26.22639],[-109.28942,26.27524],[-109.25189,26.31218],[-109.25832,26.31993],[-109.24679,26.31604],[-109.21564,26.33453],[-109.21128,26.34274],[-109.2039,26.34183],[-109.20254,26.34445],[-109.19313,26.34093],[-109.19027,26.33285],[-109.16494,26.30685],[-109.1496,26.3064],[-109.1354,26.3016],[-109.13312,26.29786],[-109.12524,26.29701],[-109.11966,26.30308],[-109.10011,26.31293],[-109.09668,26.31212],[-109.07421,26.35353],[-109.00644,26.40237],[-108.94984,26.3922]]]}},{"type":"Feature","properties":{"cve_ent":"25","cve_mun":"002","cvegeo":"25002","nombre":"Angostura"},"geometry":{"type":"MultiPolygon","coordinates":[[[[-108.09494,25.44398],[-108.09713,25.43935],[-108.10182,25.44014],[-108.09707,25.43806],[-108.09711,25.43387],[-108.09068,25.43754],[-108.09028,25.44102],[-108.08863,25.43523],[-108.0831,25.43094],[-108.09723,25.4224],[-108.05094,25.39097],[-108.03668,25.3944],[-108.03092,25.38884],[-108.03601,25.38527],[-108.02779,25.38288],[-108.03343,25.3795],[-108.03753,25.36827],[-108.02633,25.36918],[-108.0282,25.3611],[-108.04104,25.36252],[-108.04049,25.35493],[-108.04538,25.34129],[-108.04321,25.34151],[-108.04235,25.33007],[-108.03446,25.32425],[-108.03105,25.30379],[-108.03404,25.30058],[-108.00439,25.26292],[-108.00069,25.25342],[-108.01918,25.24747],[-108.02588,25.24114],[-108.03814,25.23887],[-108.0381,25.236],[-108.03523,25.23649],[-108.01506,25.22013],[-107.98836,25.22132],[-107.97706,25.19234],[-107.96949,25.18081],[-107.972,25.17706],[-107.96781,25.15612],[-107.97001,25.15431],[-107.98564,25.15828],[-107.98597,25.14995],[-107.98949,25.14988],[-107.99906,25.13403],[-107.99549,25.1341],[-107.99551,25.13169],[-107.95938,25.13179],[-107.95542,25.11806],[-107.95146,25.11807],[-107.9497,25.12254],[-107.9497,25.11454],[-107.93975,25.11455],[-107.93958,25.09113],[-107.94357,25.09098],[-107.9456,25.0865],[-107.94553,25.06848],[-107.93718,25.07027],[-107.93776,25.07664],[-107.93369,25.07752],[-107.9314,25.07025],[-107.92614,25.0784],[-107.929,25.06634],[-107.91971,25.05994],[-107.9197,25.06312],[-107.90987,25.06311],[-107.90783,25.05016],[-107.89509,25.03158],[-107.90947,24.97892],[-107.91367,24.98003],[-107.91523,24.96922],[-107.92008,24.97006],[-107.92428,24.97827],[-107.96778,24.97652],[-107.9637,24.96841],[-107.96953,24.97181],[-107.97547,24.96979],[-107.97117,24.97452],[-107.97318,24.97823],[-107.9885,24.96735],[-108.00951,24.92264],[-108.02435,24.91382],[-108.02503,24.89338],[-108.00804,24.8654],[-108.00421,24.84994],[-108.00922,24.84517],[-108.02189,24.84238],[-108.03463,24.80789],[-108.06991,24.78514],[-108.09079,24.81614],[-108.10657,24.82028],[-108.118,24.82858],[-108.12372,24.84756],[-108.13649,24.87212],[-108.22784,25.01825],[-108.25093,25.04512],[-108.27846,25.06961],[-108.34229,25.1115],[-108.34243,25.1192],[-108.33437,25.12479],[-108.35745,25.16919],[-108.38367,25.18666],[-108.37551,25.20044],[-108.37221,25.21824],[-108.3843,25.22977],[-108.3821,25.23494],[-108.38473,25.23945],[-108.37147,25.24655],[-108.37203,25.25978],[-108.36029,25.2677],[-108.35688,25.27379],[-108.35891,25.28824],[-108.36977,25.28229],[-108.37891,25.29696],[-108.37745,25.30791],[-108.37038,25.31244],[-108.37393,25.3168],[-108.37294,25.33282],[-108.365,25.33627],[-108.3632,25.34513],[-108.36788,25.35653],[-108.35204,25.35753],[-108.34422,25.36892],[-108.33767,25.36196],[-108.32075,25.37074],[-108.32,25.36803],[-108.31453,25.36965],[-108.31452,25.36657],[-108.307,25.36651],[-108.30709,25.37367],[-108.29882,25.37098],[-108.29662,25.38092],[-108.29348,25.3803],[-108.29962,25.35185],[-108.29206,25.3488],[-108.29353,25.35922],[-108.27453,25.35963],[-108.27239,25.37136],[-108.26366,25.37254],[-108.25952,25.36139],[-108.23264,25.36982],[-108.23109,25.37766],[-108.23354,25.3796],[-108.18662,25.40813],[-108.19476,25.42537],[-108.18303,25.42534],[-108.18467,25.40917],[-108.169,25.4179],[-108.16658,25.40575],[-108.1776,25.40419],[-108.16169,25.39445],[-108.162,25.4011],[-108.15552,25.40176],[-108.14391,25.41071],[-108.13888,25.42846],[-108.12127,25.43342],[-108.1167,25.43672],[-108.1175,25.44154],[-108.10285,25.45053],[-108.09494,25.44398]]],[[[-108.36666,25.15808],[-108.36127,25.15694],[-108.35413,25.16185],[-108.36044,25.15315],[-108.36873,25.14887],[-108.37201,25.1522],[-108.3735,25.15309],[-108.37631,25.15693],[-108.37778,25.1582],[-108.37706,25.167],[-108.3717,25.16283],[-108.37318,25.16079],[-108.3772,25.16365],[-108.37169,25.15713],[-108.36303,25.16862],[-108.36666,25.15808]]],[[[-108.37888,25.16946],[-108.37676,25.16814],[-108.3807,25.16121],[-108.37855,25.16014],[-108.37767,25.15776],[-108.37433,25.15388],[-108.373,25.15258],[-108.3721,25.15215],[-108.36887,25.14882],[-108.38406,25.16024],[-108.38273,25.17039],[-108.38623,25.17547],[-108.38094,25.18163],[-108.37888,25.16946]]],[[[-108.37493,25.17348],[-108.37612,25.16792],[-108.37731,25.173],[-108.37917,25.17151],[-108.38069,25.18059],[-108.37977,25.18365],[-108.37493,25.17348]]]]}},{"type":"Feature","properties":{"cve_ent":"25","cve_mun":"003","cvegeo":"25003","nombre":"Badiraguato"},"geometry":{"type":"Polygon","coordinates":[[[-106.99432,25.66223],[-106.97329,25.62957],[-107.03416,25.59632],[-107.11308,25.56106],[-107.12113,25.55641],[-107.11953,25.55422],[-107.12456,25.55041],[-107.13826,25.5522],[-107.13875,25.5601],[-107.17007,25.55955],[-107.17388,25.55655],[-107.17261,25.5517],[-107.17517,25.5492],[-107.17183,25.5428],[-107.17617,25.5444],[-107.17688,25.54082],[-107.17345,25.53371],[-107.16951,25.53247],[-107.17425,25.5291],[-107.17201,25.52384],[-107.17597,25.52271],[-107.17812,25.51518],[-107.16629,25.503],[-107.14768,25.50503],[-107.13982,25.49662],[-107.13929,25.48956],[-107.15112,25.4767],[-107.15313,25.46109],[-107.15054,25.45804],[-107.15656,25.45642],[-107.1558,25.44687],[-107.16096,25.4448],[-107.15869,25.44199],[-107.18487,25.43682],[-107.21013,25.4171],[-107.17155,25.32636],[-107.20782,25.33156],[-107.15839,25.26298],[-107.14814,25.25887],[-107.16918,25.25828],[-107.20414,25.27598],[-107.27583,25.27598],[-107.25565,25.23012],[-107.23403,25.15306],[-107.31805,25.16673],[-107.32493,25.16395],[-107.31157,25.17495],[-107.32418,25.19481],[-107.33121,25.2144],[-107.36977,25.21208],[-107.38655,25.19712],[-107.37475,25.18641],[-107.37715,25.18265],[-107.36389,25.17276],[-107.35305,25.17347],[-107.35905,25.1659],[-107.34606,25.16501],[-107.33809,25.17395],[-107.34254,25.16301],[-107.34804,25.15962],[-107.34926,25.14422],[-107.3433,25.12601],[-107.32637,25.1138],[-107.32605,25.11066],[-107.33033,25.10454],[-107.32946,25.10045],[-107.33317,25.10105],[-107.33223,25.09593],[-107.33948,25.09824],[-107.33787,25.09674],[-107.34071,25.09707],[-107.34343,25.09203],[-107.34665,25.10019],[-107.34998,25.0993],[-107.34978,25.10314],[-107.35076,25.10064],[-107.35149,25.1032],[-107.35224,25.10029],[-107.35596,25.10152],[-107.35755,25.06697],[-107.40685,25.08406],[-107.46702,25.12231],[-107.52494,25.12038],[-107.51201,25.139],[-107.52289,25.1617],[-107.53841,25.1812],[-107.53864,25.19299],[-107.55606,25.21581],[-107.58041,25.21321],[-107.60366,25.22842],[-107.61225,25.22303],[-107.62938,25.22126],[-107.62991,25.2151],[-107.64914,25.21496],[-107.65417,25.20879],[-107.67254,25.21821],[-107.67886,25.21331],[-107.69225,25.22925],[-107.69003,25.2389],[-107.6985,25.24271],[-107.69584,25.24526],[-107.70608,25.25617],[-107.71246,25.27197],[-107.7459,25.27203],[-107.74647,25.30771],[-107.75785,25.29575],[-107.75567,25.31101],[-107.76117,25.30998],[-107.76406,25.3027],[-107.78039,25.29735],[-107.79296,25.29776],[-107.75616,25.34131],[-107.75056,25.33674],[-107.75154,25.34182],[-107.74486,25.34491],[-107.74601,25.35337],[-107.72266,25.36167],[-107.72092,25.37184],[-107.70274,25.3757],[-107.70143,25.3815],[-107.69551,25.3808],[-107.6986,25.38577],[-107.69505,25.38598],[-107.69032,25.40087],[-107.67406,25.40744],[-107.67981,25.40916],[-107.69438,25.42792],[-107.68463,25.44391],[-107.68611,25.44618],[-107.64653,25.4521],[-107.66322,25.48753],[-107.6495,25.48467],[-107.64008,25.49398],[-107.64162,25.51025],[-107.63551,25.53131],[-107.64095,25.5371],[-107.6386,25.54514],[-107.64028,25.55375],[-107.60956,25.57545],[-107.6084,25.58016],[-107.58933,25.5943],[-107.58632,25.59141],[-107.58597,25.5965],[-107.58012,25.59907],[-107.58185,25.60481],[-107.57835,25.60729],[-107.59176,25.61779],[-107.58576,25.62028],[-107.58785,25.62473],[-107.58384,25.62676],[-107.58472,25.63607],[-107.57576,25.64155],[-107.58555,25.65575],[-107.58525,25.6652],[-107.57957,25.66542],[-107.58113,25.66893],[-107.5735,25.67327],[-107.57124,25.67955],[-107.6298,25.68291],[-107.65182,25.77109],[-107.64652,25.8123],[-107.60451,25.84028],[-107.59688,25.88997],[-107.60415,25.94295],[-107.53384,25.98129],[-107.50941,25.97979],[-107.48994,25.99975],[-107.49737,26.01797],[-107.50656,26.01953],[-107.51744,26.03037],[-107.5156,26.04004],[-107.53568,26.04125],[-107.53671,26.04765],[-107.54613,26.04616],[-107.54679,26.04928],[-107.54258,26.05722],[-107.52728,26.06708],[-107.51942,26.0682],[-107.51167,26.07748],[-107.52808,26.08112],[-107.51695,26.1084],[-107.50448,26.11602],[-107.49374,26.11058],[-107.48526,26.11542],[-107.48531,26.1198],[-107.47775,26.12096],[-107.46,26.13831],[-107.45097,26.13762],[-107.43104,26.14286],[-107.43235,26.13825],[-107.41612,26.14122],[-107.34653,26.10952],[-107.32704,26.09089],[-107.30489,26.0764],[-107.30669,26.04878],[-107.27635,26.00198],[-107.28238,25.98992],[-107.28004,25.9581],[-107.28703,25.95398],[-107.29613,25.92479],[-107.24247,25.89237],[-107.24651,25.87777],[-107.23938,25.88038],[-107.22903,25.86974],[-107.21312,25.86189],[-107.20695,25.86392],[-107.20887,25.85631],[-107.19458,25.85231],[-107.0579,25.75737],[-107.06468,25.74816],[-107.0605,25.74],[-107.06474,25.73278],[-107.06538,25.7252],[-107.06196,25.72294],[-107.06422,25.71907],[-107.04808,25.71083],[-107.0469,25.70058],[-107.04313,25.6977],[-107.0316,25.69788],[-107.02002,25.69222],[-107.01068,25.69146],[-107.01062,25.69837],[-107.00552,25.69871],[-107.00477,25.70313],[-106.99141,25.71049],[-106.9903,25.71492],[-106.96532,25.69788],[-106.96915,25.68301],[-106.96595,25.6771],[-106.96694,25.66833],[-106.99432,25.66223]]]}},{"type":"Feature","properties":{"cve_ent":"25","cve_mun":"004","cvegeo":"25004","nombre":"Concordia"},"geometry":{"type":"Polygon","coordinates":[[[-105.92667,23.76152],[-105.91975,23.75781],[-105.92306,23.74775],[-105.90609,23.7394],[-105.91591,23.72642],[-105.91656,23.71536],[-105.92663,23.68414],[-105.90891,23.58827],[-105.89266,23.55265],[-105.88432,23.59039],[-105.8536,23.59729],[-105.84519,23.58369],[-105.84552,23.60326],[-105.81164,23.61103],[-105.80665,23.58887],[-105.78538,23.57499],[-105.7859,23.56947],[-105.76883,23.55565],[-105.76912,23.54194],[-105.76038,23.53511],[-105.7568,23.52448],[-105.76005,23.50251],[-105.75104,23.50027],[-105.74863,23.49367],[-105.74049,23.48927],[-105.73935,23.48534],[-105.7298,23.48233],[-105.72359,23.47524],[-105.72806,23.46682],[-105.72466,23.46081],[-105.73886,23.44521],[-105.7284,23.43959],[-105.73056,23.43401],[-105.72833,23.42898],[-105.70711,23.42585],[-105.70032,23.41969],[-105.704,23.41126],[-105.71025,23.40813],[-105.70859,23.40388],[-105.71208,23.39255],[-105.71709,23.39269],[-105.72242,23.38604],[-105.71733,23.37859],[-105.73052,23.37695],[-105.72995,23.37401],[-105.71804,23.36853],[-105.73857,23.33861],[-105.84895,23.32995],[-105.83876,23.30775],[-105.91729,23.33173],[-105.93055,23.32155],[-105.93986,23.26765],[-105.93304,23.25857],[-105.93569,23.25753],[-105.93607,23.24886],[-105.92813,23.23873],[-105.94923,23.23453],[-105.94342,23.20077],[-105.93835,23.19999],[-105.9372,23.19334],[-105.9227,23.19005],[-105.92645,23.1782],[-105.90992,23.13888],[-105.909,23.11932],[-105.9306,23.11796],[-105.96302,23.08458],[-105.96186,23.08887],[-105.96565,23.09017],[-105.96398,23.09548],[-105.96804,23.09645],[-105.97156,23.10434],[-105.97658,23.10524],[-105.974,23.10753],[-105.98047,23.12015],[-105.98077,23.1083],[-105.99919,23.10495],[-106.0131,23.09653],[-106.03846,23.11553],[-106.04566,23.10531],[-106.0606,23.11448],[-106.069,23.11491],[-106.06918,23.10936],[-106.0776,23.10691],[-106.07766,23.09827],[-106.09271,23.11079],[-106.10233,23.09549],[-106.09634,23.08979],[-106.10583,23.07598],[-106.13076,23.09888],[-106.11014,23.13233],[-106.10679,23.14299],[-106.09608,23.15602],[-106.10318,23.16153],[-106.1204,23.16105],[-106.12099,23.16426],[-106.13428,23.1664],[-106.13917,23.17614],[-106.13981,23.18299],[-106.13633,23.18258],[-106.14707,23.19027],[-106.19613,23.18961],[-106.20074,23.19068],[-106.19999,23.1988],[-106.20558,23.19961],[-106.19486,23.20659],[-106.18613,23.20753],[-106.18511,23.21313],[-106.15946,23.21381],[-106.1746,23.30393],[-106.18508,23.31045],[-106.18566,23.3272],[-106.21744,23.33269],[-106.22037,23.3345],[-106.22173,23.34423],[-106.22614,23.3428],[-106.23193,23.34719],[-106.23217,23.35382],[-106.2429,23.35208],[-106.23872,23.35632],[-106.22909,23.35768],[-106.2369,23.36535],[-106.2352,23.36813],[-106.20868,23.3725],[-106.21059,23.38512],[-106.22242,23.39707],[-106.21172,23.40003],[-106.20675,23.40497],[-106.21155,23.42217],[-106.21716,23.43278],[-106.23356,23.43791],[-106.23695,23.44627],[-106.23142,23.4522],[-106.21675,23.45114],[-106.21078,23.45377],[-106.20812,23.4618],[-106.21222,23.46586],[-106.21171,23.46958],[-106.2007,23.47006],[-106.20568,23.48201],[-106.19731,23.48437],[-106.20013,23.49582],[-106.19694,23.5046],[-106.19838,23.51385],[-106.1839,23.52601],[-106.18539,23.53743],[-106.19283,23.54642],[-106.19106,23.55258],[-106.18075,23.5549],[-106.18068,23.56083],[-106.17428,23.56637],[-106.16771,23.56446],[-106.1641,23.5594],[-106.15005,23.5554],[-106.14382,23.56362],[-106.15461,23.57371],[-106.15219,23.58175],[-106.14861,23.58374],[-106.12276,23.57617],[-106.12123,23.5681],[-106.1164,23.56792],[-106.10459,23.57846],[-106.10567,23.58272],[-106.11255,23.58549],[-106.11093,23.60005],[-106.10748,23.60224],[-106.09375,23.59848],[-106.08514,23.60433],[-106.09447,23.61811],[-106.09232,23.62295],[-106.08701,23.61535],[-106.08099,23.61304],[-106.07505,23.61663],[-106.06615,23.61119],[-106.06163,23.61287],[-106.06062,23.61578],[-106.06752,23.62699],[-106.06161,23.63565],[-106.06915,23.64355],[-106.06295,23.65308],[-106.057,23.65333],[-106.04974,23.64873],[-106.042,23.65569],[-106.03673,23.65219],[-106.03334,23.65374],[-106.03951,23.65971],[-106.03409,23.66436],[-106.03505,23.67043],[-106.04272,23.67207],[-106.04418,23.67596],[-106.03461,23.68118],[-106.02395,23.67743],[-106.02087,23.68197],[-106.02211,23.69075],[-106.01434,23.70093],[-106.022,23.70409],[-106.02633,23.71192],[-106.01991,23.71637],[-106.01305,23.71284],[-106.00513,23.71888],[-106.00745,23.72496],[-106.00597,23.7355],[-106.01232,23.74128],[-106.0115,23.7473],[-106.00015,23.75103],[-105.99136,23.74639],[-105.97513,23.7663],[-105.96749,23.76599],[-105.9567,23.75716],[-105.94287,23.76126],[-105.93164,23.75578],[-105.92667,23.76152]]]}},{"type":"Feature","properties":{"cve_ent":"25","cve_mun":"005","cvegeo":"25005","nombre":"Cosalá"},"geometry":{"type":"Polygon","coordinates":[[[-106.5083,24.29087],[-106.46286,24.26971],[-106.46312,24.23804],[-106.48521,24.23998],[-106.50509,24.23284],[-106.50403,24.22936],[-106.50742,24.22924],[-106.51044,24.22394],[-106.51402,24.22826],[-106.51743,24.22478],[-106.52439,24.22717],[-106.52601,24.2235],[-106.53201,24.22812],[-106.53575,24.22384],[-106.54804,24.22539],[-106.54879,24.22255],[-106.552,24.22698],[-106.55947,24.22404],[-106.56119,24.22638],[-106.56743,24.22507],[-106.60486,24.23811],[-106.61342,24.22786],[-106.61128,24.22093],[-106.60304,24.22095],[-106.60592,24.21638],[-106.70808,24.2331],[-106.71501,24.22571],[-106.71643,24.21656],[-106.72277,24.21388],[-106.72441,24.22074],[-106.73345,24.22253],[-106.73365,24.22816],[-106.74134,24.22452],[-106.74703,24.24541],[-106.75906,24.25194],[-106.75774,24.26015],[-106.76586,24.25697],[-106.77711,24.26461],[-106.77395,24.27271],[-106.7793,24.28289],[-106.7939,24.28716],[-106.84662,24.26866],[-106.88913,24.28404],[-106.91321,24.27617],[-106.94886,24.30051],[-106.93995,24.32501],[-106.95898,24.35774],[-106.99263,24.36768],[-107.01846,24.39684],[-107.01735,24.40961],[-107.02363,24.41425],[-107.03295,24.43317],[-107.04623,24.42816],[-107.05103,24.45198],[-107.05128,24.4714],[-107.05556,24.47923],[-107.05295,24.48294],[-107.03881,24.48645],[-107.02252,24.48517],[-107.02178,24.49265],[-106.99857,24.4975],[-106.98969,24.50311],[-106.96478,24.50743],[-106.9743,24.54297],[-107.02271,24.55403],[-107.02383,24.55835],[-107.02158,24.5656],[-107.01558,24.56805],[-107.01447,24.57578],[-107.0234,24.59944],[-107.03352,24.61061],[-107.04225,24.64321],[-107.029,24.65105],[-107.02566,24.65842],[-107.01618,24.64648],[-107.01681,24.6533],[-107.04055,24.68183],[-107.01222,24.7179],[-107.00508,24.71681],[-106.99757,24.72706],[-106.98676,24.72746],[-106.9753,24.72303],[-106.96862,24.72632],[-106.97104,24.72967],[-106.96939,24.73389],[-106.94795,24.7371],[-106.9474,24.74419],[-106.9455,24.74279],[-106.94592,24.76449],[-106.90671,24.76788],[-106.87376,24.79703],[-106.87116,24.80935],[-106.886,24.82635],[-106.86585,24.82296],[-106.79613,24.75336],[-106.79301,24.74391],[-106.78425,24.74146],[-106.70595,24.66526],[-106.68905,24.62375],[-106.68361,24.59853],[-106.64546,24.52898],[-106.63224,24.52999],[-106.62261,24.5249],[-106.63007,24.5065],[-106.62546,24.50102],[-106.60999,24.49785],[-106.60036,24.48321],[-106.59587,24.49383],[-106.58661,24.49253],[-106.57317,24.47763],[-106.56002,24.47271],[-106.56284,24.45878],[-106.56832,24.4531],[-106.56928,24.43702],[-106.60159,24.41457],[-106.59529,24.40947],[-106.58347,24.39027],[-106.58596,24.379],[-106.53409,24.30955],[-106.52799,24.29512],[-106.51709,24.28698],[-106.5083,24.29087]]]}},{"type":"Feature","properties":{"cve_ent":"25","cve_mun":"006","cvegeo":"25006","nombre":"Culiacán"},"geometry":{"type":"Polygon","coordinates":[[[-107.14834,25.25916],[-107.12106,25.24311],[-107.13168,25.2322],[-107.13202,25.22671],[-107.14877,25.22455],[-107.12901,25.1884],[-107.12492,25.18664],[-107.12989,25.05314],[-107.0674,25.03016],[-107.06357,25.02526],[-107.0665,25.0204],[-107.06042,25.00243],[-107.01834,24.93362],[-107.02515,24.92838],[-107.02105,24.90991],[-107.00058,24.92824],[-106.97325,24.90961],[-106.95101,24.888],[-106.94628,24.88895],[-106.93451,24.88054],[-106.93062,24.87347],[-106.93286,24.87148],[-106.92708,24.86662],[-106.95142,24.85902],[-106.94639,24.85851],[-106.94396,24.85153],[-106.94314,24.84306],[-106.94649,24.83975],[-106.93806,24.83525],[-106.93066,24.82092],[-106.91928,24.81395],[-106.90295,24.82839],[-106.886,24.82635],[-106.87116,24.80935],[-106.87376,24.79703],[-106.90671,24.76788],[-106.94592,24.76449],[-106.9455,24.74279],[-106.9474,24.74419],[-106.94795,24.7371],[-106.96939,24.73389],[-106.97104,24.72967],[-106.96862,24.72632],[-106.9753,24.72303],[-106.98676,24.72746],[-106.99757,24.72706],[-107.00508,24.71681],[-107.01222,24.7179],[-107.04055,24.68183],[-107.01681,24.6533],[-107.01618,24.64648],[-107.02566,24.65842],[-107.029,24.65105],[-107.04225,24.64321],[-107.03352,24.61061],[-107.0234,24.59944],[-107.01447,24.57578],[-107.01558,24.56805],[-107.02107,24.5661],[-107.02382,24.56089],[-107.02271,24.55403],[-106.9743,24.54297],[-106.96478,24.50743],[-106.98969,24.50311],[-106.99857,24.4975],[-107.02178,24.49265],[-107.02252,24.48517],[-107.03881,24.48645],[-107.05422,24.48192],[-107.04623,24.42816],[-107.03295,24.43317],[-107.02363,24.41425],[-107.01735,24.40961],[-107.01846,24.39684],[-106.99263,24.36768],[-106.95898,24.35774],[-106.93995,24.32501],[-106.94886,24.30051],[-106.91321,24.27617],[-106.9139,24.26566],[-106.91892,24.26713],[-106.92077,24.24982],[-106.9259,24.24038],[-106.9251,24.23197],[-106.92866,24.22587],[-106.93413,24.22337],[-106.93767,24.22723],[-106.93926,24.22363],[-106.93362,24.21241],[-106.92914,24.2106],[-106.9264,24.19986],[-106.93917,24.18708],[-106.93767,24.16819],[-106.94232,24.1647],[-106.94252,24.15625],[-106.9472,24.15451],[-106.95338,24.15742],[-106.9498,24.16411],[-106.98718,24.15818],[-107.00009,24.16329],[-107.00006,24.16697],[-107.01195,24.15939],[-107.02709,24.15888],[-107.02885,24.16177],[-107.03369,24.15862],[-107.04573,24.15855],[-107.04922,24.14666],[-107.03538,24.1284],[-107.05027,24.1164],[-107.02791,24.08505],[-107.03262,24.08497],[-107.03019,24.08046],[-107.02622,24.07754],[-107.02369,24.07916],[-107.01618,24.06731],[-107.04282,24.06717],[-107.05619,24.0623],[-107.06419,24.06541],[-107.06598,24.06191],[-107.05982,24.0582],[-107.06212,24.04877],[-107.05679,24.03973],[-107.06386,24.04105],[-107.0813,24.05302],[-107.09354,24.06854],[-107.11207,24.07334],[-107.12437,24.08118],[-107.1282,24.09468],[-107.14615,24.09386],[-107.15985,24.10379],[-107.16494,24.10397],[-107.16488,24.0989],[-107.14766,24.09074],[-107.14448,24.08541],[-107.13771,24.0833],[-107.1352,24.07705],[-107.12502,24.07426],[-107.11775,24.06497],[-107.11033,24.06137],[-107.11103,24.05107],[-107.1042,24.04393],[-107.11258,24.03971],[-107.10998,24.03928],[-107.11175,24.03469],[-107.19621,24.09362],[-107.20311,24.10186],[-107.19923,24.09956],[-107.1956,24.10341],[-107.219,24.12143],[-107.23729,24.12972],[-107.40521,24.23201],[-107.4401,24.26558],[-107.54068,24.3363],[-107.70225,24.43918],[-107.75863,24.47121],[-107.81489,24.49752],[-107.82542,24.50609],[-107.8226,24.51332],[-107.81723,24.51665],[-107.82313,24.52242],[-107.80048,24.52603],[-107.61729,24.41734],[-107.53649,24.45596],[-107.54003,24.51746],[-107.53773,24.52594],[-107.52826,24.53361],[-107.53363,24.53982],[-107.53351,24.57229],[-107.52368,24.57231],[-107.52368,24.59016],[-107.51383,24.59012],[-107.51375,24.6178],[-107.50365,24.67177],[-107.4663,24.67215],[-107.46897,24.6834],[-107.46172,24.68342],[-107.46117,24.69759],[-107.45288,24.69752],[-107.45297,24.71018],[-107.47137,24.71111],[-107.47402,24.71374],[-107.474,24.74456],[-107.47704,24.7447],[-107.47776,24.75287],[-107.50463,24.76758],[-107.50645,24.77181],[-107.51236,24.76976],[-107.51233,24.76147],[-107.51332,24.77132],[-107.54003,24.77032],[-107.54521,24.78466],[-107.54897,24.78295],[-107.55259,24.78955],[-107.55347,24.80163],[-107.56237,24.79911],[-107.56246,24.80462],[-107.58558,24.8012],[-107.58425,24.80914],[-107.59799,24.80997],[-107.5969,24.81558],[-107.58535,24.81456],[-107.58529,24.82251],[-107.59768,24.8226],[-107.59875,24.83143],[-107.61252,24.83161],[-107.60994,24.85557],[-107.68263,24.88968],[-107.72303,24.91603],[-107.71985,24.91953],[-107.7248,24.92525],[-107.72303,24.92757],[-107.70141,24.92249],[-107.69793,24.92624],[-107.69149,24.92553],[-107.68882,24.92828],[-107.68513,24.92545],[-107.68167,24.92895],[-107.67032,24.93122],[-107.65683,24.92757],[-107.64803,24.93706],[-107.65272,24.94074],[-107.64647,24.93887],[-107.64239,24.94558],[-107.6418,24.95796],[-107.62693,24.96646],[-107.62288,24.97443],[-107.61584,24.97065],[-107.60024,24.97293],[-107.58918,24.97769],[-107.58623,24.98446],[-107.57982,24.98649],[-107.58799,24.9943],[-107.59665,24.9927],[-107.59094,25.00245],[-107.58809,25.01753],[-107.59154,25.03848],[-107.55781,25.0703],[-107.5275,25.0791],[-107.52368,25.09058],[-107.52995,25.11572],[-107.52494,25.12038],[-107.46702,25.12231],[-107.40685,25.08406],[-107.35755,25.06697],[-107.35596,25.10152],[-107.35224,25.10029],[-107.35149,25.1032],[-107.35076,25.10064],[-107.34978,25.10314],[-107.34998,25.0993],[-107.34665,25.10019],[-107.34343,25.09203],[-107.34071,25.09707],[-107.33787,25.09674],[-107.33948,25.09824],[-107.33223,25.09593],[-107.33317,25.10105],[-107.32946,25.10045],[-107.33033,25.10454],[-107.32605,25.11066],[-107.32637,25.1138],[-107.3433,25.12601],[-107.34926,25.14422],[-107.34804,25.15962],[-107.34254,25.16301],[-107.33809,25.17395],[-107.34606,25.16501],[-107.35905,25.1659],[-107.35305,25.17347],[-107.36389,25.17276],[-107.37715,25.18265],[-107.37475,25.18641],[-107.38655,25.19712],[-107.36977,25.21208],[-107.33121,25.2144],[-107.32418,25.19481],[-107.31157,25.17495],[-107.32493,25.16395],[-107.31805,25.16673],[-107.23403,25.15306],[-107.25565,25.23012],[-107.27583,25.27598],[-107.20414,25.27598],[-107.16918,25.25828],[-107.14834,25.25916]]]}},{"type":"Feature","properties":{"cve_ent":"25","cve_mun":"007","cvegeo":"25007","nombre":"Choix"},"geometry":{"type":"Polygon","coordinates":[[[-108.09411,26.87046],[-108.02682,26.79847],[-108.03765,26.76978],[-108.01426,26.77315],[-108.0057,26.76105],[-108.01372,26.75031],[-108.01524,26.73705],[-108.01923,26.73067],[-108.0088,26.72331],[-108.0079,26.69933],[-108.01428,26.68604],[-108.03032,26.67426],[-108.03172,26.66798],[-108.04269,26.66676],[-108.04653,26.65979],[-108.05595,26.65647],[-108.05628,26.6519],[-108.06465,26.64737],[-108.07793,26.64617],[-108.0816,26.64199],[-108.07443,26.63645],[-108.07456,26.62799],[-108.07172,26.62692],[-108.06882,26.63145],[-108.05867,26.62659],[-108.05158,26.62984],[-108.04453,26.62497],[-108.04515,26.61971],[-108.03746,26.61971],[-108.03181,26.61592],[-108.03544,26.60971],[-108.03251,26.60318],[-108.01217,26.5914],[-108.01248,26.57964],[-108.001,26.57256],[-107.99765,26.56471],[-107.99205,26.56228],[-107.98974,26.54804],[-107.97969,26.54318],[-107.97751,26.53611],[-107.96102,26.52696],[-107.96199,26.5178],[-107.95546,26.50598],[-107.95727,26.49374],[-107.97052,26.48907],[-107.98562,26.4721],[-107.96964,26.47017],[-107.99937,26.44845],[-108.01434,26.45328],[-108.01939,26.44949],[-108.01391,26.39045],[-108.03661,26.3689],[-108.03088,26.33886],[-108.05312,26.31358],[-108.08538,26.30882],[-108.09772,26.31189],[-108.11147,26.29829],[-108.12307,26.30161],[-108.12801,26.29938],[-108.15464,26.30233],[-108.158,26.29516],[-108.15489,26.28638],[-108.16566,26.28382],[-108.17587,26.29514],[-108.18145,26.29259],[-108.18881,26.29402],[-108.21714,26.30689],[-108.21891,26.31054],[-108.22046,26.32477],[-108.20584,26.32246],[-108.19881,26.34854],[-108.19196,26.35646],[-108.18674,26.37366],[-108.20493,26.37402],[-108.2145,26.364],[-108.22055,26.37769],[-108.26259,26.38479],[-108.26262,26.36326],[-108.30104,26.37373],[-108.30433,26.41262],[-108.31029,26.44066],[-108.28823,26.44241],[-108.26051,26.45659],[-108.29716,26.45226],[-108.30496,26.47189],[-108.31956,26.48999],[-108.32669,26.49097],[-108.33721,26.48723],[-108.33838,26.47831],[-108.35584,26.47809],[-108.36101,26.48966],[-108.36508,26.49084],[-108.36648,26.47814],[-108.37436,26.47572],[-108.3862,26.4916],[-108.39244,26.48362],[-108.40401,26.50668],[-108.41844,26.51194],[-108.41766,26.51696],[-108.42256,26.52183],[-108.42168,26.52907],[-108.4245,26.53346],[-108.43625,26.5335],[-108.43921,26.53691],[-108.45649,26.53419],[-108.46493,26.53763],[-108.45612,26.54807],[-108.44219,26.55314],[-108.43122,26.56969],[-108.43973,26.58632],[-108.42709,26.58593],[-108.41187,26.60162],[-108.4053,26.59714],[-108.39109,26.61454],[-108.38592,26.61631],[-108.40354,26.64359],[-108.43549,26.64452],[-108.43488,26.63671],[-108.44656,26.61665],[-108.46915,26.6108],[-108.46758,26.6029],[-108.47263,26.59907],[-108.49148,26.60096],[-108.5014,26.60997],[-108.50838,26.61078],[-108.50525,26.60298],[-108.51166,26.6036],[-108.51639,26.60787],[-108.51836,26.60622],[-108.52118,26.61023],[-108.51923,26.61448],[-108.52229,26.61062],[-108.52507,26.6129],[-108.51924,26.62062],[-108.52035,26.62645],[-108.52379,26.62948],[-108.52861,26.62787],[-108.53375,26.6239],[-108.53185,26.62102],[-108.53669,26.6111],[-108.53377,26.61291],[-108.52323,26.60994],[-108.52374,26.60525],[-108.51941,26.60078],[-108.52277,26.59708],[-108.5195,26.58079],[-108.52969,26.58398],[-108.52977,26.57711],[-108.57028,26.55966],[-108.58127,26.55955],[-108.58752,26.56419],[-108.5868,26.55925],[-108.59813,26.5664],[-108.59535,26.57045],[-108.60286,26.56728],[-108.60533,26.56881],[-108.60134,26.57316],[-108.60137,26.58381],[-108.61867,26.59159],[-108.61289,26.59355],[-108.61153,26.59752],[-108.61508,26.59948],[-108.61481,26.59481],[-108.61722,26.59418],[-108.61893,26.6041],[-108.63494,26.61029],[-108.62722,26.62132],[-108.6379,26.62978],[-108.63105,26.63312],[-108.6305,26.63932],[-108.61838,26.63987],[-108.62014,26.64756],[-108.66364,26.658],[-108.65768,26.66913],[-108.63037,26.67657],[-108.6337,26.67957],[-108.62987,26.68049],[-108.6318,26.6872],[-108.63599,26.69052],[-108.62839,26.71839],[-108.61773,26.722],[-108.61625,26.72646],[-108.60102,26.72722],[-108.59721,26.74322],[-108.59886,26.75031],[-108.59419,26.75917],[-108.58161,26.7591],[-108.57833,26.76278],[-108.57598,26.77776],[-108.58085,26.78958],[-108.5752,26.79322],[-108.56477,26.77848],[-108.55403,26.77986],[-108.54982,26.78756],[-108.53691,26.79843],[-108.53792,26.80412],[-108.54766,26.80583],[-108.55535,26.81158],[-108.55704,26.82375],[-108.54704,26.82856],[-108.53513,26.84098],[-108.52206,26.87968],[-108.51804,26.88042],[-108.46698,26.9707],[-108.42427,26.97623],[-108.50249,26.98736],[-108.50419,26.99243],[-108.50176,26.99666],[-108.50626,27.00308],[-108.50444,27.00718],[-108.50087,27.00444],[-108.50157,27.0084],[-108.4973,27.01341],[-108.48417,27.01744],[-108.48538,27.02783],[-108.49173,27.03138],[-108.47997,27.03959],[-108.47551,27.03995],[-108.47131,27.0305],[-108.46431,27.0401],[-108.45479,27.02704],[-108.4431,27.0295],[-108.41373,27.02016],[-108.40964,27.0134],[-108.37164,27.02301],[-108.35011,27.02255],[-108.33333,27.0046],[-108.32203,27.00894],[-108.32598,27.02049],[-108.31656,27.03449],[-108.30339,27.03662],[-108.29463,27.02587],[-108.28891,27.02658],[-108.29093,27.01483],[-108.28422,27.01247],[-108.26988,27.02512],[-108.26293,27.02676],[-108.26085,27.03313],[-108.25045,27.04103],[-108.24617,27.03881],[-108.24122,27.04185],[-108.22585,27.02722],[-108.21472,27.03022],[-108.21255,27.03423],[-108.20284,27.03066],[-108.1977,27.03471],[-108.19427,27.03195],[-108.19182,27.02589],[-108.19443,27.02424],[-108.18728,27.01027],[-108.1836,27.00906],[-108.18028,27.00016],[-108.18362,26.99531],[-108.18152,26.99411],[-108.18628,26.99311],[-108.18789,26.98636],[-108.19705,26.9838],[-108.19691,26.98112],[-108.20127,26.98302],[-108.20471,26.98029],[-108.20738,26.98311],[-108.21089,26.97799],[-108.21583,26.97768],[-108.21837,26.96479],[-108.23502,26.95862],[-108.23549,26.95347],[-108.22925,26.94267],[-108.23102,26.9328],[-108.22625,26.92953],[-108.22502,26.92288],[-108.23024,26.90572],[-108.20972,26.88544],[-108.20621,26.88555],[-108.20278,26.89062],[-108.20739,26.906],[-108.19767,26.90267],[-108.19008,26.89587],[-108.18392,26.89974],[-108.17758,26.8822],[-108.17455,26.88146],[-108.17144,26.88393],[-108.17175,26.89234],[-108.16705,26.89584],[-108.15591,26.89522],[-108.14755,26.90851],[-108.1442,26.90844],[-108.1396,26.89548],[-108.14425,26.86765],[-108.09411,26.87046]]]}},{"type":"Feature","properties":{"cve_ent":"25","cve_mun":"008","cvegeo":"25008","nombre":"Elota"},"geometry":{"type":"Polygon","coordinates":[[[-106.60592,24.21638],[-106.61066,24.21356],[-106.60589,24.21118],[-106.60579,24.20515],[-106.62099,24.19945],[-106.61843,24.1942],[-106.62113,24.19142],[-106.62059,24.1848],[-106.62379,24.17893],[-106.63075,24.17599],[-106.62946,24.1709],[-106.63515,24.16817],[-106.63201,24.16017],[-106.63439,24.15602],[-106.64346,24.15997],[-106.6543,24.1512],[-106.64634,24.13802],[-106.6565,24.13675],[-106.66111,24.14429],[-106.66517,24.1455],[-106.6683,24.14244],[-106.66351,24.13814],[-106.664,24.13489],[-106.66815,24.13837],[-106.67524,24.13437],[-106.67547,24.13059],[-106.69197,24.12995],[-106.69067,24.12602],[-106.69629,24.12804],[-106.69571,24.12043],[-106.67876,24.11629],[-106.67764,24.10859],[-106.6806,24.1014],[-106.6748,24.09037],[-106.65869,24.0822],[-106.65378,24.06958],[-106.65487,24.06014],[-106.65929,24.05809],[-106.65474,24.04808],[-106.67064,24.03185],[-106.67786,24.03074],[-106.68006,24.0234],[-106.6754,24.01712],[-106.6799,24.01269],[-106.68527,23.99754],[-106.69106,23.9609],[-106.70407,23.95761],[-106.71249,23.96621],[-106.71524,23.96198],[-106.70892,23.95798],[-106.70315,23.94488],[-106.69657,23.95036],[-106.69042,23.94913],[-106.67055,23.91957],[-106.68554,23.89358],[-106.73564,23.85332],[-106.73171,23.83442],[-106.73742,23.83318],[-106.74289,23.80264],[-106.73794,23.80063],[-106.74006,23.78929],[-106.86193,23.77435],[-106.88204,23.79577],[-106.8874,23.83],[-106.8933,23.8417],[-107.0116,23.9528],[-107.11614,24.03736],[-107.11175,24.03469],[-107.10998,24.03928],[-107.11258,24.03971],[-107.1042,24.04393],[-107.11103,24.05107],[-107.11033,24.06137],[-107.11775,24.06497],[-107.12502,24.07426],[-107.1352,24.07705],[-107.13771,24.0833],[-107.14448,24.08541],[-107.14766,24.09074],[-107.16505,24.0993],[-107.16515,24.10369],[-107.16155,24.10427],[-107.14615,24.09386],[-107.1282,24.09468],[-107.12437,24.08118],[-107.11207,24.07334],[-107.09354,24.06854],[-107.0813,24.05302],[-107.06386,24.04105],[-107.05679,24.03973],[-107.06212,24.04877],[-107.05982,24.0582],[-107.06598,24.06191],[-107.06419,24.06541],[-107.05619,24.0623],[-107.04282,24.06717],[-107.01618,24.06731],[-107.02369,24.07916],[-107.02622,24.07754],[-107.03019,24.08046],[-107.03262,24.08497],[-107.02791,24.08505],[-107.05027,24.1164],[-107.03538,24.1284],[-107.04922,24.14666],[-107.04573,24.15855],[-107.03369,24.15862],[-107.02885,24.16177],[-107.02709,24.15888],[-107.01195,24.15939],[-107.00006,24.16697],[-107.00009,24.16329],[-106.98718,24.15818],[-106.9498,24.16411],[-106.95264,24.15656],[-106.94252,24.15625],[-106.94232,24.1647],[-106.93715,24.17055],[-106.9404,24.17961],[-106.93917,24.18708],[-106.9264,24.19986],[-106.92838,24.20918],[-106.93362,24.21241],[-106.9389,24.22499],[-106.93767,24.22723],[-106.93413,24.22337],[-106.92866,24.22587],[-106.9251,24.23197],[-106.9259,24.24038],[-106.92077,24.24982],[-106.91892,24.26713],[-106.9139,24.26566],[-106.91321,24.27617],[-106.88913,24.28404],[-106.84662,24.26866],[-106.7939,24.28716],[-106.7793,24.28289],[-106.77395,24.27271],[-106.77711,24.26461],[-106.76586,24.25697],[-106.75774,24.26015],[-106.75906,24.25194],[-106.74703,24.24541],[-106.74134,24.22452],[-106.73365,24.22816],[-106.73345,24.22253],[-106.72441,24.22074],[-106.72277,24.21388],[-106.71643,24.21656],[-106.71501,24.22571],[-106.70808,24.2331],[-106.60592,24.21638]]]}},{"type":"Feature","properties":{"cve_ent":"25","cve_mun":"009","cvegeo":"25009","nombre":"Escuinapa"},"geometry":{"type":"Polygon","coordinates":[[[-105.49494,22.81062],[-105.50209,22.81011],[-105.50561,22.80588],[-105.50646,22.79775],[-105.51118,22.79691],[-105.50916,22.79223],[-105.51912,22.78389],[-105.51651,22.78056],[-105.51991,22.77277],[-105.52469,22.77517],[-105.51937,22.759],[-105.51408,22.75933],[-105.51526,22.73947],[-105.52289,22.72433],[-105.49806,22.65139],[-105.46396,22.65924],[-105.46237,22.6569],[-105.46039,22.64755],[-105.46937,22.64144],[-105.47393,22.63106],[-105.46995,22.62516],[-105.45046,22.62676],[-105.44811,22.61012],[-105.45443,22.60521],[-105.45599,22.59874],[-105.4376,22.58491],[-105.43873,22.56524],[-105.43463,22.54998],[-105.43662,22.53752],[-105.44423,22.52943],[-105.44172,22.52427],[-105.45448,22.51876],[-105.46084,22.50857],[-105.46321,22.51061],[-105.46645,22.50539],[-105.47406,22.5029],[-105.4816,22.50877],[-105.48066,22.51393],[-105.4838,22.51771],[-105.49202,22.51945],[-105.4932,22.52342],[-105.50318,22.52768],[-105.50957,22.51696],[-105.52194,22.521],[-105.5336,22.51503],[-105.54168,22.53654],[-105.57364,22.53925],[-105.57595,22.53515],[-105.58389,22.53348],[-105.59735,22.5363],[-105.60166,22.54219],[-105.60048,22.55889],[-105.61211,22.56816],[-105.62204,22.57143],[-105.63141,22.58875],[-105.63095,22.59298],[-105.64216,22.59389],[-105.63921,22.57698],[-105.65402,22.58075],[-105.66056,22.58636],[-105.67105,22.57634],[-105.6764,22.57679],[-105.69005,22.56839],[-105.69883,22.56788],[-105.70013,22.55703],[-105.67715,22.51293],[-105.67111,22.48156],[-105.67704,22.46814],[-105.69248,22.46718],[-105.70119,22.46769],[-105.71412,22.47495],[-105.72635,22.49002],[-105.75021,22.53934],[-105.75962,22.53757],[-105.76049,22.55097],[-105.76893,22.55599],[-105.77347,22.57646],[-105.79374,22.61312],[-105.81781,22.6487],[-105.84274,22.67844],[-105.93432,22.76674],[-105.998,22.81311],[-105.9892,22.82494],[-105.97314,22.82283],[-105.9419,22.85098],[-105.93432,22.84004],[-105.92523,22.84648],[-105.91889,22.8459],[-105.90803,22.85182],[-105.89011,22.84764],[-105.8879,22.84264],[-105.88331,22.84106],[-105.88133,22.84348],[-105.87833,22.83807],[-105.87071,22.84417],[-105.8727,22.83898],[-105.87764,22.83674],[-105.87455,22.83126],[-105.86112,22.82651],[-105.85543,22.82864],[-105.85674,22.832],[-105.85412,22.83352],[-105.84846,22.8247],[-105.83447,22.831],[-105.83329,22.8373],[-105.83132,22.83378],[-105.81656,22.836],[-105.83109,22.85039],[-105.85622,22.88457],[-105.83997,22.88742],[-105.83837,22.88408],[-105.83526,22.89197],[-105.82518,22.89355],[-105.8264,22.90957],[-105.81777,22.91512],[-105.8149,22.92813],[-105.81164,22.92476],[-105.80868,22.92577],[-105.80403,22.93958],[-105.78878,22.94485],[-105.75978,22.96247],[-105.75239,22.9605],[-105.67871,22.89415],[-105.65608,22.88173],[-105.65822,22.90174],[-105.61981,22.89663],[-105.61926,22.90808],[-105.59886,22.91933],[-105.59014,22.90449],[-105.59709,22.89803],[-105.585,22.88401],[-105.58495,22.88011],[-105.57744,22.87912],[-105.57824,22.87068],[-105.56127,22.86964],[-105.55027,22.87298],[-105.54535,22.86409],[-105.53995,22.86324],[-105.53646,22.85184],[-105.52959,22.84837],[-105.53408,22.83063],[-105.52283,22.81866],[-105.50087,22.81611],[-105.49494,22.81062]]]}},{"type":"Feature","properties":{"cve_ent":"25","cve_mun":"010","cvegeo":"25010","nombre":"El Fuerte"},"geometry":{"type":"Polygon","coordinates":[[[-108.27221,26.36639],[-108.28457,26.34286],[-108.27906,26.3234],[-108.28095,26.30886],[-108.28511,26.3077],[-108.28601,26.29505],[-108.28266,26.29777],[-108.27321,26.27801],[-108.28534,26.26416],[-108.27559,26.24809],[-108.3199,26.22221],[-108.35772,26.21889],[-108.35439,26.20281],[-108.38128,26.16232],[-108.39777,26.16587],[-108.4153,26.14502],[-108.40821,26.13113],[-108.41521,26.11704],[-108.43046,26.11625],[-108.4437,26.12396],[-108.43953,26.1322],[-108.44776,26.14446],[-108.45261,26.14134],[-108.45535,26.15044],[-108.46548,26.15625],[-108.47765,26.12919],[-108.48484,26.14258],[-108.48778,26.13904],[-108.49236,26.14607],[-108.50349,26.14709],[-108.49743,26.11582],[-108.51348,26.11377],[-108.51582,26.0989],[-108.61432,26.10628],[-108.61702,26.10038],[-108.59979,26.0847],[-108.62859,26.02999],[-108.63179,26.03434],[-108.63298,26.02069],[-108.64512,25.99104],[-108.64785,25.97581],[-108.61395,25.97524],[-108.61503,25.92701],[-108.65712,25.91777],[-108.66431,25.89459],[-108.64991,25.88063],[-108.67091,25.87322],[-108.66747,25.85079],[-108.70494,25.84623],[-108.72489,25.85026],[-108.72428,25.86123],[-108.73042,25.86319],[-108.73841,25.85493],[-108.76481,25.85083],[-108.7699,25.86871],[-108.77716,25.86822],[-108.77827,25.87227],[-108.85369,25.83931],[-108.85908,25.81665],[-108.86664,25.82033],[-108.85462,25.84013],[-108.89852,25.87785],[-108.89551,25.88295],[-108.91512,25.89415],[-108.92322,25.87416],[-108.90644,25.86659],[-108.91117,25.85857],[-108.9403,25.87682],[-108.94301,25.87303],[-108.95105,25.87752],[-108.96146,25.85001],[-108.96626,25.85547],[-108.96444,25.85823],[-108.98032,25.86755],[-108.97631,25.87355],[-108.98395,25.91839],[-108.97389,25.92636],[-108.99246,25.93123],[-109.00952,25.94577],[-108.99589,25.96422],[-108.99602,25.97135],[-108.98815,25.97328],[-108.99649,25.99647],[-108.98782,26.00461],[-109.01786,26.03467],[-108.95811,26.09383],[-108.97323,26.10265],[-108.96481,26.11219],[-108.97231,26.10906],[-108.98262,26.11534],[-108.98702,26.12355],[-108.99972,26.12762],[-109.00245,26.13292],[-109.01638,26.1361],[-108.99229,26.22117],[-109.00791,26.22579],[-109.0089,26.23053],[-109.01554,26.23433],[-109.03194,26.23785],[-109.04258,26.24743],[-109.03821,26.24655],[-109.0321,26.26793],[-109.02833,26.26689],[-109.02669,26.2723],[-109.02421,26.27175],[-109.02666,26.27509],[-108.99314,26.2932],[-108.96324,26.28621],[-108.95816,26.30414],[-108.95213,26.30551],[-108.95243,26.30206],[-108.94711,26.30577],[-108.94996,26.28961],[-108.9277,26.30215],[-108.92952,26.30696],[-108.93286,26.30668],[-108.93152,26.377],[-108.94984,26.3922],[-108.93652,26.39018],[-108.90918,26.41659],[-108.91012,26.42171],[-108.88139,26.40625],[-108.86034,26.43277],[-108.87611,26.44758],[-108.83776,26.47252],[-108.8378,26.47686],[-108.84748,26.48722],[-108.85674,26.48052],[-108.91467,26.47954],[-108.89132,26.4896],[-108.87315,26.55107],[-108.80642,26.5706],[-108.78772,26.56526],[-108.77709,26.57093],[-108.77659,26.58011],[-108.73429,26.59357],[-108.71074,26.59363],[-108.71059,26.58706],[-108.67883,26.58702],[-108.67899,26.64289],[-108.66364,26.658],[-108.62014,26.64756],[-108.61838,26.63987],[-108.6305,26.63932],[-108.63105,26.63312],[-108.6379,26.62978],[-108.62722,26.62132],[-108.63494,26.61029],[-108.61893,26.6041],[-108.61722,26.59418],[-108.61481,26.59481],[-108.61508,26.59948],[-108.61153,26.59752],[-108.61289,26.59355],[-108.61867,26.59159],[-108.60137,26.58381],[-108.60134,26.57316],[-108.60533,26.56881],[-108.59535,26.57045],[-108.59813,26.5664],[-108.5868,26.55925],[-108.58752,26.56419],[-108.58127,26.55955],[-108.57028,26.55966],[-108.52977,26.57711],[-108.52969,26.58398],[-108.5195,26.58079],[-108.52277,26.59708],[-108.51941,26.60078],[-108.52374,26.60525],[-108.52323,26.60994],[-108.53377,26.61291],[-108.53669,26.6111],[-108.53185,26.62102],[-108.53375,26.6239],[-108.52861,26.62787],[-108.52379,26.62948],[-108.52035,26.62645],[-108.51924,26.62062],[-108.52507,26.6129],[-108.52229,26.61062],[-108.51923,26.61448],[-108.52118,26.61023],[-108.51836,26.60622],[-108.51639,26.60787],[-108.51166,26.6036],[-108.50525,26.60298],[-108.50838,26.61078],[-108.5014,26.60997],[-108.49148,26.60096],[-108.47263,26.59907],[-108.46758,26.6029],[-108.46915,26.6108],[-108.44656,26.61665],[-108.43488,26.63671],[-108.43549,26.64452],[-108.40354,26.64359],[-108.38592,26.61631],[-108.39109,26.61454],[-108.4053,26.59714],[-108.41187,26.60162],[-108.42709,26.58593],[-108.43973,26.58632],[-108.43122,26.56969],[-108.44219,26.55314],[-108.45612,26.54807],[-108.46493,26.53763],[-108.45649,26.53419],[-108.43921,26.53691],[-108.43625,26.5335],[-108.4245,26.53346],[-108.42168,26.52907],[-108.42256,26.52183],[-108.41766,26.51696],[-108.41844,26.51194],[-108.40401,26.50668],[-108.39244,26.48362],[-108.3862,26.4916],[-108.37436,26.47572],[-108.36648,26.47814],[-108.36508,26.49084],[-108.36101,26.48966],[-108.35584,26.47809],[-108.33838,26.47831],[-108.33721,26.48723],[-108.32669,26.49097],[-108.31956,26.48999],[-108.30496,26.47189],[-108.29716,26.45226],[-108.26051,26.45659],[-108.28823,26.44241],[-108.31029,26.44066],[-108.30433,26.41262],[-108.30104,26.37373],[-108.27221,26.36639]]]}},{"type":"Feature","properties":{"cve_ent":"25","cve_mun":"011","cvegeo":"25011","nombre":"Guasave"},"geometry":{"type":"Polygon","coordinates":[[[-108.17864,25.61612],[-108.2135,25.5897],[-108.1895,25.55059],[-108.19075,25.53685],[-108.20183,25.52613],[-108.20446,25.51398],[-108.19679,25.51094],[-108.18918,25.48653],[-108.19309,25.48255],[-108.22016,25.49053],[-108.25263,25.48676],[-108.25957,25.47849],[-108.27442,25.47271],[-108.27976,25.45704],[-108.29032,25.39596],[-108.30271,25.39914],[-108.30707,25.39345],[-108.307,25.36651],[-108.31452,25.36657],[-108.31453,25.36965],[-108.32,25.36803],[-108.32075,25.37074],[-108.33767,25.36196],[-108.34422,25.36892],[-108.35204,25.35753],[-108.36788,25.35653],[-108.3632,25.34513],[-108.365,25.33627],[-108.37294,25.33282],[-108.37393,25.3168],[-108.37038,25.31244],[-108.37745,25.30791],[-108.37891,25.29696],[-108.36977,25.28229],[-108.35891,25.28824],[-108.35688,25.27379],[-108.36029,25.2677],[-108.37203,25.25978],[-108.37147,25.24655],[-108.38473,25.23945],[-108.3821,25.23494],[-108.3843,25.22977],[-108.37221,25.21824],[-108.37551,25.20044],[-108.38736,25.18515],[-108.43508,25.2436],[-108.45028,25.2566],[-108.47167,25.2702],[-108.49517,25.28012],[-108.49826,25.28428],[-108.53328,25.29705],[-108.54448,25.30493],[-108.67871,25.35124],[-108.72263,25.36043],[-108.74538,25.36194],[-108.75159,25.36487],[-108.75154,25.36852],[-108.78581,25.36933],[-108.80147,25.37364],[-108.9088,25.41979],[-108.96272,25.43175],[-109.02053,25.43812],[-109.02655,25.44438],[-108.90731,25.44751],[-108.89646,25.48019],[-108.88658,25.49567],[-108.88438,25.50874],[-108.89193,25.51302],[-108.86009,25.5734],[-108.85243,25.58165],[-108.85435,25.59119],[-108.84769,25.58852],[-108.84915,25.5815],[-108.8416,25.57976],[-108.84599,25.58586],[-108.84162,25.58779],[-108.84513,25.59634],[-108.85887,25.62267],[-108.86318,25.62299],[-108.86975,25.71618],[-108.85381,25.73916],[-108.8644,25.74035],[-108.85272,25.75109],[-108.84001,25.75225],[-108.83199,25.76539],[-108.82936,25.76398],[-108.82678,25.76797],[-108.83281,25.77403],[-108.8111,25.79748],[-108.80751,25.79963],[-108.79435,25.79257],[-108.77953,25.81548],[-108.77491,25.81952],[-108.77216,25.81805],[-108.76607,25.82656],[-108.75788,25.83087],[-108.74702,25.8107],[-108.73185,25.79162],[-108.72047,25.79152],[-108.72049,25.78541],[-108.71342,25.78851],[-108.70511,25.78406],[-108.70555,25.73925],[-108.68666,25.72686],[-108.69108,25.72007],[-108.68249,25.71554],[-108.68931,25.70513],[-108.67504,25.69786],[-108.66325,25.70756],[-108.65503,25.70056],[-108.65509,25.70575],[-108.56268,25.70539],[-108.56239,25.7094],[-108.55771,25.70913],[-108.55714,25.71189],[-108.55029,25.70976],[-108.5508,25.72134],[-108.54022,25.72149],[-108.54059,25.72991],[-108.53002,25.73024],[-108.53039,25.73989],[-108.49161,25.73292],[-108.49146,25.7425],[-108.48295,25.74364],[-108.47557,25.74236],[-108.47516,25.73605],[-108.45789,25.7368],[-108.45571,25.74325],[-108.44682,25.74361],[-108.43728,25.79059],[-108.41868,25.78342],[-108.41835,25.76844],[-108.36649,25.76437],[-108.36461,25.73357],[-108.36072,25.73487],[-108.35958,25.7422],[-108.34773,25.75482],[-108.34803,25.74388],[-108.34198,25.74244],[-108.33472,25.75727],[-108.29196,25.71706],[-108.29946,25.71135],[-108.2944,25.69751],[-108.29874,25.69833],[-108.30494,25.6931],[-108.3117,25.69969],[-108.31359,25.69801],[-108.3119,25.68276],[-108.30967,25.68431],[-108.30183,25.67613],[-108.30981,25.67012],[-108.29768,25.6643],[-108.29845,25.66049],[-108.26215,25.65381],[-108.25121,25.64376],[-108.19434,25.63328],[-108.17864,25.61612]]]}},{"type":"Feature","properties":{"cve_ent":"25","cve_mun":"012","cvegeo":"25012","nombre":"Mazatlán"},"geometry":{"type":"MultiPolygon","coordinates":[[[[-105.95188,23.81965],[-105.93933,23.79143],[-105.93217,23.7947],[-105.92878,23.78658],[-105.92953,23.78096],[-105.92494,23.77382],[-105.92937,23.76658],[-105.92719,23.7605],[-105.93164,23.75578],[-105.94287,23.76126],[-105.9567,23.75716],[-105.96749,23.76599],[-105.97513,23.7663],[-105.99136,23.74639],[-106.00015,23.75103],[-106.0115,23.7473],[-106.01232,23.74128],[-106.00597,23.7355],[-106.00745,23.72496],[-106.00513,23.71888],[-106.01305,23.71284],[-106.01991,23.71637],[-106.02633,23.71192],[-106.022,23.70409],[-106.01434,23.70093],[-106.02211,23.69075],[-106.02087,23.68197],[-106.02395,23.67743],[-106.03461,23.68118],[-106.04418,23.67596],[-106.04272,23.67207],[-106.03505,23.67043],[-106.03409,23.66436],[-106.03951,23.65971],[-106.03334,23.65374],[-106.03673,23.65219],[-106.042,23.65569],[-106.04974,23.64873],[-106.057,23.65333],[-106.06295,23.65308],[-106.06915,23.64355],[-106.06161,23.63565],[-106.06752,23.62699],[-106.06062,23.61578],[-106.06163,23.61287],[-106.06615,23.61119],[-106.07505,23.61663],[-106.08099,23.61304],[-106.08701,23.61535],[-106.09232,23.62295],[-106.09447,23.61811],[-106.08514,23.60433],[-106.09375,23.59848],[-106.10748,23.60224],[-106.11093,23.60005],[-106.11255,23.58549],[-106.10567,23.58272],[-106.10459,23.57846],[-106.1164,23.56792],[-106.12123,23.5681],[-106.12276,23.57617],[-106.14861,23.58374],[-106.15219,23.58175],[-106.15461,23.57371],[-106.14382,23.56362],[-106.15005,23.5554],[-106.1641,23.5594],[-106.16771,23.56446],[-106.17428,23.56637],[-106.18068,23.56083],[-106.18075,23.5549],[-106.19106,23.55258],[-106.19283,23.54642],[-106.18539,23.53743],[-106.1839,23.52601],[-106.19838,23.51385],[-106.19694,23.5046],[-106.20013,23.49582],[-106.19731,23.48437],[-106.20568,23.48201],[-106.2007,23.47006],[-106.21171,23.46958],[-106.21222,23.46586],[-106.20812,23.4618],[-106.21078,23.45377],[-106.21675,23.45114],[-106.23142,23.4522],[-106.23695,23.44627],[-106.23356,23.43791],[-106.21716,23.43278],[-106.21155,23.42217],[-106.20675,23.40497],[-106.21172,23.40003],[-106.22242,23.39707],[-106.21059,23.38512],[-106.20868,23.3725],[-106.2352,23.36813],[-106.2369,23.36535],[-106.22909,23.35768],[-106.23872,23.35632],[-106.2429,23.35208],[-106.23217,23.35382],[-106.23193,23.34719],[-106.22614,23.3428],[-106.22173,23.34423],[-106.22037,23.3345],[-106.21744,23.33269],[-106.18566,23.3272],[-106.18508,23.31045],[-106.1746,23.30393],[-106.15946,23.21381],[-106.18511,23.21313],[-106.18613,23.20753],[-106.19486,23.20659],[-106.20558,23.19961],[-106.19999,23.1988],[-106.20074,23.19068],[-106.19613,23.18961],[-106.14707,23.19027],[-106.13633,23.18258],[-106.13981,23.18299],[-106.13917,23.17614],[-106.13428,23.1664],[-106.12099,23.16426],[-106.1204,23.16105],[-106.10318,23.16153],[-106.09561,23.15531],[-106.10679,23.14299],[-106.11989,23.11471],[-106.14035,23.08537],[-106.15069,23.0866],[-106.17735,23.11288],[-106.18237,23.10921],[-106.18948,23.11502],[-106.18938,23.121],[-106.19407,23.11499],[-106.1884,23.10368],[-106.20396,23.09085],[-106.22051,23.09534],[-106.22316,23.08228],[-106.22779,23.08142],[-106.22924,23.09079],[-106.23529,23.09351],[-106.24495,23.09182],[-106.25221,23.09579],[-106.25923,23.08938],[-106.24815,23.08023],[-106.25789,23.06844],[-106.29021,23.09101],[-106.33073,23.13148],[-106.39431,23.18192],[-106.40836,23.18695],[-106.41187,23.18599],[-106.41408,23.17802],[-106.42362,23.17949],[-106.42999,23.17658],[-106.42462,23.18599],[-106.42831,23.18951],[-106.42681,23.19599],[-106.43098,23.20294],[-106.4293,23.20851],[-106.42289,23.20963],[-106.4219,23.21591],[-106.43066,23.22809],[-106.45356,23.24142],[-106.45815,23.2527],[-106.46657,23.26057],[-106.46866,23.26717],[-106.46625,23.27162],[-106.47043,23.28079],[-106.4939,23.30403],[-106.49406,23.30953],[-106.48794,23.30749],[-106.48102,23.3127],[-106.48266,23.32953],[-106.5388,23.40184],[-106.61837,23.47351],[-106.6045,23.55079],[-106.59742,23.61619],[-106.51873,23.62424],[-106.52933,23.66017],[-106.5266,23.66417],[-106.5296,23.66814],[-106.52119,23.69104],[-106.47729,23.68947],[-106.46672,23.69876],[-106.41655,23.69268],[-106.38596,23.67768],[-106.36914,23.63815],[-106.36638,23.64103],[-106.35344,23.6383],[-106.35165,23.6339],[-106.34191,23.63037],[-106.33195,23.61527],[-106.32962,23.61726],[-106.32366,23.6144],[-106.31065,23.61467],[-106.30809,23.61171],[-106.31032,23.60574],[-106.30391,23.60133],[-106.29592,23.60462],[-106.29012,23.60019],[-106.28586,23.60283],[-106.28072,23.6003],[-106.27579,23.60536],[-106.27174,23.60326],[-106.27216,23.60671],[-106.26676,23.60865],[-106.2652,23.61958],[-106.26039,23.61866],[-106.26039,23.6234],[-106.25269,23.62415],[-106.25416,23.63062],[-106.25161,23.63233],[-106.24938,23.6295],[-106.25019,23.63458],[-106.24638,23.63571],[-106.24726,23.63888],[-106.24324,23.64271],[-106.24232,23.63722],[-106.23669,23.63595],[-106.23614,23.64235],[-106.23441,23.63923],[-106.23155,23.64084],[-106.2324,23.64591],[-106.22804,23.64882],[-106.22723,23.65426],[-106.20914,23.65828],[-106.21211,23.66324],[-106.2084,23.66334],[-106.2092,23.66787],[-106.20431,23.6709],[-106.20756,23.67192],[-106.20433,23.67371],[-106.20566,23.67654],[-106.17921,23.66319],[-106.17314,23.70739],[-106.11543,23.72852],[-106.1597,23.77022],[-106.06833,23.89116],[-105.95188,23.81965]]],[[[-106.40447,23.17995],[-106.40282,23.17973],[-106.40395,23.1784],[-106.40447,23.17995]]],[[[-106.41292,23.1733],[-106.41317,23.17308],[-106.41322,23.17333],[-106.41292,23.1733]]],[[[-106.43588,23.18754],[-106.43668,23.18718],[-106.43658,23.18775],[-106.43588,23.18754]]],[[[-106.44061,23.18468],[-106.43914,23.18432],[-106.44064,23.18378],[-106.44061,23.18468]]],[[[-106.46731,23.23918],[-106.46231,23.23091],[-106.46403,23.2278],[-106.4713,23.2341],[-106.46731,23.23918]]],[[[-106.46329,23.22456],[-106.46722,23.22232],[-106.46355,23.22772],[-106.46329,23.22456]]],[[[-106.47518,23.25843],[-106.47356,23.25155],[-106.4795,23.25036],[-106.47939,23.25666],[-106.47518,23.25843]]]]}},{"type":"Feature","properties":{"cve_ent":"25","cve_mun":"013","cvegeo":"25013","nombre":"Mocorito"},"geometry":{"type":"Polygon","coordinates":[[[-107.51201,25.139],[-107.52995,25.11572],[-107.52368,25.09058],[-107.5275,25.0791],[-107.55781,25.0703],[-107.59154,25.03848],[-107.58809,25.01753],[-107.59094,25.00245],[-107.59665,24.9927],[-107.58799,24.9943],[-107.57982,24.98649],[-107.58623,24.98446],[-107.58918,24.97769],[-107.60024,24.97293],[-107.61584,24.97065],[-107.62288,24.97443],[-107.62693,24.96646],[-107.6418,24.95796],[-107.64239,24.94558],[-107.64647,24.93887],[-107.65272,24.94074],[-107.64803,24.93706],[-107.65683,24.92757],[-107.67032,24.93122],[-107.68167,24.92895],[-107.68513,24.92545],[-107.68882,24.92828],[-107.69149,24.92553],[-107.69793,24.92624],[-107.70141,24.92249],[-107.72303,24.92757],[-107.72529,24.92339],[-107.71985,24.91953],[-107.72303,24.91603],[-107.73677,24.92545],[-107.74444,24.93682],[-107.76019,24.93585],[-107.75673,24.9417],[-107.75826,24.94713],[-107.76576,24.94625],[-107.76652,24.95202],[-107.77035,24.94832],[-107.77809,24.95159],[-107.78115,24.94567],[-107.78357,24.94982],[-107.79073,24.94951],[-107.79894,24.95443],[-107.79191,24.96303],[-107.79965,24.96635],[-107.80846,24.9796],[-107.8173,25.00447],[-107.82716,25.00762],[-107.84065,25.03215],[-107.88892,25.02058],[-107.88441,25.03319],[-107.89589,25.03236],[-107.90783,25.05016],[-107.90987,25.06311],[-107.9197,25.06312],[-107.91971,25.05994],[-107.929,25.06634],[-107.92614,25.0784],[-107.9314,25.07025],[-107.93369,25.07752],[-107.93776,25.07664],[-107.93718,25.07027],[-107.94553,25.06848],[-107.9456,25.0865],[-107.94357,25.09098],[-107.93958,25.09113],[-107.93891,25.11358],[-107.9497,25.11454],[-107.9497,25.12254],[-107.95146,25.11807],[-107.95542,25.11806],[-107.95938,25.13179],[-107.99551,25.13169],[-107.99549,25.1341],[-107.99906,25.13403],[-107.98949,25.14988],[-107.98597,25.14995],[-107.98657,25.15747],[-107.97001,25.15431],[-107.96781,25.15612],[-107.97104,25.16364],[-107.9688,25.16466],[-107.95831,25.15422],[-107.95075,25.15201],[-107.95136,25.14808],[-107.93971,25.14794],[-107.93277,25.20413],[-107.87012,25.20362],[-107.86856,25.22877],[-107.87506,25.22869],[-107.87481,25.23534],[-107.87928,25.2375],[-107.88258,25.23447],[-107.88468,25.24025],[-107.89873,25.23908],[-107.8976,25.24647],[-107.90202,25.24477],[-107.9071,25.25419],[-107.90638,25.26353],[-107.92585,25.2991],[-107.91226,25.30637],[-107.89946,25.30677],[-107.89721,25.3121],[-107.90126,25.31837],[-107.91212,25.31977],[-107.91515,25.31549],[-107.9129,25.31149],[-107.91655,25.30994],[-107.93192,25.31024],[-107.94388,25.33201],[-107.95056,25.33763],[-107.94674,25.34096],[-107.93623,25.34034],[-107.92943,25.34552],[-107.92506,25.35676],[-107.91966,25.36092],[-107.9155,25.3602],[-107.91418,25.37251],[-107.95102,25.38073],[-107.94379,25.41006],[-107.93322,25.41696],[-107.94474,25.4209],[-107.94974,25.40812],[-107.97526,25.40904],[-107.99628,25.41786],[-107.99992,25.43155],[-107.99198,25.43119],[-108.00362,25.4556],[-108.00139,25.45866],[-108.00777,25.46614],[-108.00164,25.48113],[-108.00562,25.48466],[-108.00372,25.49735],[-108.01027,25.50307],[-108.02189,25.49939],[-108.00818,25.51078],[-108.00918,25.51811],[-108.02032,25.53696],[-108.01769,25.54252],[-108.00971,25.54244],[-108.00867,25.54538],[-108.01353,25.54713],[-108.01127,25.55547],[-108.01365,25.55753],[-108.02444,25.55482],[-108.02759,25.55788],[-108.02667,25.56103],[-108.01908,25.5631],[-108.01397,25.57929],[-108.0027,25.58623],[-108.00012,25.59307],[-108.00481,25.5959],[-108.01295,25.58773],[-108.01586,25.58921],[-108.01375,25.5937],[-108.02124,25.59493],[-108.04681,25.58622],[-108.04854,25.59088],[-108.04676,25.60907],[-108.03925,25.61868],[-108.03444,25.63925],[-108.02716,25.65058],[-108.01718,25.64878],[-108.00379,25.63931],[-107.99446,25.63932],[-107.99082,25.65115],[-107.9844,25.64781],[-107.96261,25.65398],[-107.95002,25.66594],[-107.95748,25.68266],[-107.95784,25.68924],[-107.95384,25.6917],[-107.91466,25.66711],[-107.88454,25.68668],[-107.86611,25.6887],[-107.86414,25.69958],[-107.85369,25.69909],[-107.85755,25.71437],[-107.83777,25.72297],[-107.83892,25.72984],[-107.83534,25.7356],[-107.82581,25.73681],[-107.79929,25.72623],[-107.79512,25.73137],[-107.80139,25.74885],[-107.79294,25.75324],[-107.7944,25.75668],[-107.7915,25.75917],[-107.77865,25.755],[-107.77371,25.75014],[-107.76903,25.75345],[-107.75868,25.75326],[-107.7562,25.75023],[-107.73164,25.75581],[-107.73167,25.76099],[-107.7219,25.75865],[-107.71312,25.77246],[-107.68941,25.7735],[-107.67728,25.78183],[-107.69896,25.79515],[-107.64652,25.8123],[-107.65182,25.77109],[-107.6298,25.68291],[-107.57124,25.67955],[-107.5735,25.67327],[-107.58113,25.66893],[-107.57957,25.66542],[-107.58525,25.6652],[-107.58555,25.65575],[-107.57576,25.64155],[-107.58472,25.63607],[-107.58384,25.62676],[-107.58785,25.62473],[-107.58576,25.62028],[-107.59176,25.61779],[-107.57835,25.60729],[-107.58185,25.60481],[-107.58001,25.59941],[-107.58597,25.5965],[-107.58632,25.59141],[-107.58933,25.5943],[-107.6084,25.58016],[-107.60956,25.57545],[-107.64028,25.55375],[-107.6386,25.54514],[-107.64095,25.5371],[-107.63551,25.53131],[-107.64162,25.51025],[-107.64008,25.49398],[-107.6495,25.48467],[-107.66322,25.48753],[-107.64653,25.4521],[-107.68611,25.44618],[-107.68463,25.44391],[-107.69438,25.42792],[-107.67981,25.40916],[-107.67406,25.40744],[-107.69032,25.40087],[-107.69505,25.38598],[-107.6986,25.38577],[-107.69551,25.3808],[-107.70143,25.3815],[-107.70274,25.3757],[-107.72092,25.37184],[-107.72266,25.36167],[-107.74601,25.35337],[-107.74486,25.34491],[-107.75154,25.34182],[-107.75056,25.33674],[-107.75616,25.34131],[-107.79296,25.29776],[-107.78039,25.29735],[-107.76406,25.3027],[-107.76117,25.30998],[-107.75567,25.31101],[-107.75785,25.29575],[-107.74647,25.30771],[-107.7459,25.27203],[-107.71246,25.27197],[-107.70608,25.25617],[-107.69584,25.24526],[-107.6985,25.24271],[-107.69003,25.2389],[-107.69225,25.22925],[-107.67886,25.21331],[-107.67254,25.21821],[-107.65417,25.20879],[-107.64914,25.21496],[-107.62991,25.2151],[-107.62938,25.22126],[-107.61225,25.22303],[-107.60366,25.22842],[-107.58041,25.21321],[-107.55606,25.21581],[-107.53864,25.19299],[-107.53841,25.1812],[-107.52289,25.1617],[-107.51201,25.139]]]}},{"type":"Feature","properties":{"cve_ent":"25","cve_mun":"014","cvegeo":"25014","nombre":"Rosario"},"geometry":{"type":"Polygon","coordinates":[[[-105.39225,23.08408],[-105.413,23.0741],[-105.40986,23.04436],[-105.41316,23.03705],[-105.40895,23.02364],[-105.43259,23.02397],[-105.45331,22.9774],[-105.50126,22.95856],[-105.4961,22.93422],[-105.49865,22.93356],[-105.47122,22.88329],[-105.47533,22.88062],[-105.4842,22.8587],[-105.47459,22.85142],[-105.47918,22.84199],[-105.4872,22.83911],[-105.48775,22.82601],[-105.49341,22.82616],[-105.49494,22.81062],[-105.50087,22.81611],[-105.52283,22.81866],[-105.53408,22.83063],[-105.52959,22.84837],[-105.53646,22.85184],[-105.53995,22.86324],[-105.54535,22.86409],[-105.55027,22.87298],[-105.56127,22.86964],[-105.57824,22.87068],[-105.57744,22.87912],[-105.58495,22.88011],[-105.585,22.88401],[-105.59709,22.89803],[-105.59014,22.90449],[-105.59886,22.91933],[-105.61926,22.90808],[-105.61981,22.89663],[-105.65822,22.90174],[-105.65608,22.88173],[-105.67871,22.89415],[-105.75239,22.9605],[-105.75978,22.96247],[-105.78878,22.94485],[-105.80403,22.93958],[-105.80868,22.92577],[-105.81164,22.92476],[-105.8149,22.92813],[-105.81777,22.91512],[-105.8264,22.90957],[-105.82518,22.89355],[-105.83526,22.89197],[-105.83837,22.88408],[-105.83997,22.88742],[-105.85622,22.88457],[-105.83109,22.85039],[-105.81656,22.836],[-105.83132,22.83378],[-105.83329,22.8373],[-105.83447,22.831],[-105.84846,22.8247],[-105.85412,22.83352],[-105.85674,22.832],[-105.85543,22.82864],[-105.86112,22.82651],[-105.87455,22.83126],[-105.87764,22.83674],[-105.8727,22.83898],[-105.87071,22.84417],[-105.87833,22.83807],[-105.88133,22.84348],[-105.88331,22.84106],[-105.8879,22.84264],[-105.89011,22.84764],[-105.90803,22.85182],[-105.91889,22.8459],[-105.92523,22.84648],[-105.93432,22.84004],[-105.9419,22.85098],[-105.97314,22.82283],[-105.9892,22.82494],[-105.998,22.81311],[-106.02684,22.83139],[-106.03454,22.8297],[-106.06489,22.86929],[-106.1461,22.9612],[-106.20663,23.02261],[-106.25789,23.06844],[-106.24815,23.08023],[-106.25923,23.08938],[-106.25221,23.09579],[-106.24495,23.09182],[-106.23529,23.09351],[-106.22924,23.09079],[-106.22779,23.08142],[-106.22316,23.08228],[-106.22051,23.09534],[-106.20396,23.09085],[-106.18811,23.10422],[-106.19407,23.11499],[-106.18938,23.121],[-106.18948,23.11502],[-106.18625,23.11203],[-106.18237,23.10921],[-106.17735,23.11288],[-106.15069,23.0866],[-106.14035,23.08537],[-106.13076,23.09888],[-106.10583,23.07598],[-106.09634,23.08979],[-106.10233,23.09549],[-106.09271,23.11079],[-106.07766,23.09827],[-106.0776,23.10691],[-106.06918,23.10936],[-106.069,23.11491],[-106.0606,23.11448],[-106.04566,23.10531],[-106.03846,23.11553],[-106.0131,23.09653],[-105.99919,23.10495],[-105.98077,23.1083],[-105.98047,23.12015],[-105.974,23.10753],[-105.97658,23.10524],[-105.97156,23.10434],[-105.96804,23.09645],[-105.96398,23.09548],[-105.96565,23.09017],[-105.96186,23.08887],[-105.96302,23.08458],[-105.9306,23.11796],[-105.909,23.11932],[-105.90992,23.13888],[-105.92645,23.1782],[-105.9227,23.19005],[-105.9372,23.19334],[-105.93835,23.19999],[-105.94342,23.20077],[-105.94923,23.23453],[-105.92813,23.23873],[-105.93607,23.24886],[-105.93569,23.25753],[-105.93304,23.25857],[-105.93986,23.26765],[-105.93055,23.32155],[-105.91729,23.33173],[-105.83876,23.30775],[-105.84895,23.32995],[-105.73857,23.33861],[-105.71804,23.36853],[-105.71187,23.36341],[-105.71516,23.35022],[-105.70517,23.34873],[-105.70351,23.3401],[-105.694,23.34057],[-105.70218,23.33265],[-105.69884,23.32823],[-105.70078,23.32424],[-105.69372,23.32037],[-105.69233,23.31097],[-105.69947,23.30772],[-105.69175,23.30514],[-105.68738,23.30714],[-105.69397,23.30131],[-105.68708,23.28752],[-105.67704,23.28578],[-105.67265,23.28164],[-105.66484,23.28266],[-105.66371,23.28742],[-105.65828,23.28219],[-105.64321,23.27648],[-105.64546,23.26937],[-105.64279,23.26597],[-105.64747,23.26155],[-105.64684,23.25337],[-105.63918,23.24502],[-105.64234,23.23808],[-105.63032,23.23558],[-105.62967,23.21924],[-105.63574,23.21475],[-105.62971,23.20229],[-105.63523,23.19692],[-105.63434,23.18978],[-105.64072,23.18545],[-105.63304,23.17345],[-105.63887,23.16762],[-105.63688,23.15592],[-105.64618,23.14889],[-105.64399,23.14177],[-105.62397,23.12239],[-105.61876,23.1263],[-105.61698,23.12199],[-105.60696,23.12179],[-105.60579,23.11825],[-105.60905,23.11664],[-105.60142,23.11409],[-105.59764,23.10915],[-105.58425,23.11286],[-105.58036,23.10935],[-105.57471,23.11006],[-105.57538,23.10497],[-105.57017,23.10672],[-105.56934,23.11006],[-105.55431,23.09889],[-105.54934,23.10037],[-105.54861,23.10442],[-105.53707,23.10454],[-105.53122,23.11806],[-105.50403,23.12773],[-105.45532,23.11734],[-105.44619,23.11963],[-105.44037,23.1167],[-105.43408,23.12046],[-105.42443,23.12029],[-105.41589,23.1169],[-105.40853,23.1032],[-105.3988,23.10221],[-105.40123,23.09618],[-105.39957,23.08975],[-105.39225,23.08408]]]}},{"type":"Feature","properties":{"cve_ent":"25","cve_mun":"015","cvegeo":"25015","nombre":"Salvador Alvarado"},"geometry":{"type":"Polygon","coordinates":[[[-108.04826,25.59178],[-108.04681,25.58622],[-108.02124,25.59493],[-108.01375,25.5937],[-108.01586,25.58921],[-108.01295,25.58773],[-108.00481,25.5959],[-108.00012,25.59307],[-108.0027,25.58623],[-108.01397,25.57929],[-108.01908,25.5631],[-108.02667,25.56103],[-108.02759,25.55788],[-108.02444,25.55482],[-108.01365,25.55753],[-108.01127,25.55547],[-108.01353,25.54713],[-108.00867,25.54538],[-108.00971,25.54244],[-108.01769,25.54252],[-108.02032,25.53696],[-108.00918,25.51811],[-108.00818,25.51078],[-108.02189,25.49939],[-108.01027,25.50307],[-108.00372,25.49735],[-108.00562,25.48466],[-108.00164,25.48113],[-108.00777,25.46614],[-108.00139,25.45866],[-108.00362,25.4556],[-107.99198,25.43119],[-107.99992,25.43155],[-107.99628,25.41786],[-107.97526,25.40904],[-107.94974,25.40812],[-107.94474,25.4209],[-107.93322,25.41696],[-107.94379,25.41006],[-107.95102,25.38073],[-107.91418,25.37251],[-107.9155,25.3602],[-107.91966,25.36092],[-107.92506,25.35676],[-107.92943,25.34552],[-107.93623,25.34034],[-107.94674,25.34096],[-107.95056,25.33763],[-107.94388,25.33201],[-107.93192,25.31024],[-107.91655,25.30994],[-107.9129,25.31149],[-107.91515,25.31549],[-107.91212,25.31977],[-107.90126,25.31837],[-107.89721,25.3121],[-107.89946,25.30677],[-107.91226,25.30637],[-107.92585,25.2991],[-107.90638,25.26353],[-107.9071,25.25419],[-107.90202,25.24477],[-107.8976,25.24647],[-107.89873,25.23908],[-107.88468,25.24025],[-107.88258,25.23447],[-107.87928,25.2375],[-107.87481,25.23534],[-107.87506,25.22869],[-107.86856,25.22877],[-107.87012,25.20362],[-107.93277,25.20413],[-107.93971,25.14794],[-107.95136,25.14808],[-107.95075,25.15201],[-107.95831,25.15422],[-107.96818,25.1626],[-107.972,25.17706],[-107.96949,25.18081],[-107.97706,25.19234],[-107.98836,25.22132],[-108.01506,25.22013],[-108.03523,25.23649],[-108.0381,25.236],[-108.03814,25.23887],[-108.02588,25.24114],[-108.01918,25.24747],[-108.00069,25.25342],[-108.00439,25.26292],[-108.03404,25.30058],[-108.03105,25.30379],[-108.03446,25.32425],[-108.04235,25.33007],[-108.04321,25.34151],[-108.04538,25.34129],[-108.04049,25.35493],[-108.04104,25.36252],[-108.0282,25.3611],[-108.02633,25.36918],[-108.03753,25.36827],[-108.03343,25.3795],[-108.02779,25.38288],[-108.03601,25.38527],[-108.03092,25.38884],[-108.03668,25.3944],[-108.05094,25.39097],[-108.09723,25.4224],[-108.0831,25.43094],[-108.08863,25.43523],[-108.08822,25.43957],[-108.09028,25.44102],[-108.09068,25.43754],[-108.09711,25.43387],[-108.09707,25.43806],[-108.10182,25.44014],[-108.09713,25.43935],[-108.09494,25.44398],[-108.10285,25.45053],[-108.1175,25.44154],[-108.1167,25.43672],[-108.12127,25.43342],[-108.13888,25.42846],[-108.14391,25.41071],[-108.15552,25.40176],[-108.162,25.4011],[-108.16169,25.39445],[-108.1776,25.40419],[-108.16658,25.40575],[-108.169,25.4179],[-108.18467,25.40917],[-108.18303,25.42534],[-108.18954,25.42643],[-108.19476,25.42537],[-108.18662,25.40813],[-108.23354,25.3796],[-108.23109,25.37766],[-108.23264,25.36982],[-108.25952,25.36139],[-108.26366,25.37254],[-108.27239,25.37136],[-108.27453,25.35963],[-108.29353,25.35922],[-108.2928,25.34864],[-108.29962,25.35185],[-108.29354,25.38055],[-108.29662,25.38092],[-108.29882,25.37098],[-108.30709,25.37367],[-108.30707,25.39345],[-108.30271,25.39914],[-108.29032,25.39596],[-108.27677,25.4708],[-108.25957,25.47849],[-108.25263,25.48676],[-108.22016,25.49053],[-108.19309,25.48255],[-108.18918,25.48653],[-108.19679,25.51094],[-108.20446,25.51398],[-108.20183,25.52613],[-108.19075,25.53685],[-108.1895,25.55059],[-108.2135,25.5897],[-108.18053,25.61368],[-108.16733,25.60402],[-108.16355,25.60395],[-108.16347,25.60695],[-108.15868,25.60697],[-108.15812,25.60407],[-108.12041,25.60667],[-108.1177,25.5858],[-108.09371,25.59406],[-108.09313,25.60447],[-108.08358,25.60108],[-108.07127,25.5905],[-108.06849,25.59292],[-108.06077,25.58843],[-108.04826,25.59178]]]}},{"type":"Feature","properties":{"cve_ent":"25","cve_mun":"016","cvegeo":"25016","nombre":"San Ignacio"},"geometry":{"type":"Polygon","coordinates":[[[-106.15254,24.33877],[-106.08982,24.28536],[-106.0869,24.27769],[-106.07584,24.27139],[-106.07207,24.25627],[-106.06995,24.2202],[-106.04388,24.22085],[-106.04416,24.2117],[-106.03638,24.20402],[-106.03398,24.19189],[-106.02681,24.18653],[-106.02856,24.18033],[-106.00321,24.14684],[-106.0042,24.12996],[-106.00124,24.12832],[-106.00405,24.12053],[-105.99665,24.11446],[-105.98972,24.11439],[-105.98908,24.108],[-105.98944,24.10236],[-105.99563,24.09829],[-105.99446,24.09183],[-106.00197,24.08836],[-106.00071,24.07606],[-106.00788,24.07251],[-106.00661,24.06719],[-106.00118,24.06309],[-105.99986,24.05507],[-105.99672,24.05422],[-105.99872,24.04338],[-105.9941,24.04458],[-105.98427,24.03868],[-105.97951,24.04196],[-105.97304,24.03274],[-105.96655,24.03184],[-105.96541,24.02707],[-105.95981,24.02383],[-105.95981,24.0174],[-105.95026,24.01482],[-105.94871,24.01177],[-105.9469,24.01516],[-105.94598,24.0122],[-105.94234,24.01432],[-105.93763,24.00499],[-105.92887,23.99929],[-105.91709,24.0001],[-105.91214,23.99753],[-105.91293,23.99201],[-105.90846,23.98343],[-105.94542,23.94803],[-105.89992,23.94392],[-105.88155,23.93282],[-105.87899,23.92607],[-105.86598,23.91607],[-105.86414,23.90532],[-105.85759,23.8993],[-105.85851,23.89309],[-105.86327,23.88945],[-105.86074,23.88642],[-105.86549,23.88072],[-105.8641,23.87561],[-105.8833,23.87855],[-105.95366,23.90858],[-105.96127,23.84074],[-105.95188,23.81965],[-106.06833,23.89116],[-106.1597,23.77022],[-106.11543,23.72852],[-106.17314,23.70739],[-106.17921,23.66319],[-106.20566,23.67654],[-106.20433,23.67371],[-106.20756,23.67192],[-106.20431,23.6709],[-106.2092,23.66787],[-106.2084,23.66334],[-106.21211,23.66324],[-106.20914,23.65828],[-106.22723,23.65426],[-106.22804,23.64882],[-106.2324,23.64591],[-106.23155,23.64084],[-106.23441,23.63923],[-106.23614,23.64235],[-106.23669,23.63595],[-106.24232,23.63722],[-106.24324,23.64271],[-106.24726,23.63888],[-106.24638,23.63571],[-106.25019,23.63458],[-106.24938,23.6295],[-106.25161,23.63233],[-106.25416,23.63062],[-106.25269,23.62415],[-106.26039,23.6234],[-106.26039,23.61866],[-106.2652,23.61958],[-106.26676,23.60865],[-106.27216,23.60671],[-106.27174,23.60326],[-106.27579,23.60536],[-106.28072,23.6003],[-106.28586,23.60283],[-106.29012,23.60019],[-106.29592,23.60462],[-106.30391,23.60133],[-106.31032,23.60574],[-106.30809,23.61171],[-106.31065,23.61467],[-106.32366,23.6144],[-106.32962,23.61726],[-106.33195,23.61527],[-106.34191,23.63037],[-106.35165,23.6339],[-106.35344,23.6383],[-106.36638,23.64103],[-106.36914,23.63815],[-106.38596,23.67768],[-106.41655,23.69268],[-106.46672,23.69876],[-106.47729,23.68947],[-106.52119,23.69104],[-106.5296,23.66814],[-106.5266,23.66417],[-106.52933,23.66017],[-106.51873,23.62424],[-106.59742,23.61619],[-106.6045,23.55079],[-106.61837,23.47351],[-106.62664,23.47783],[-106.63038,23.48703],[-106.62641,23.49191],[-106.6278,23.4968],[-106.68222,23.54098],[-106.68602,23.55809],[-106.6994,23.5735],[-106.72916,23.59516],[-106.76417,23.61322],[-106.77127,23.62402],[-106.78585,23.63188],[-106.78502,23.63492],[-106.79022,23.64042],[-106.81092,23.65274],[-106.8116,23.6581],[-106.8053,23.65963],[-106.8044,23.66758],[-106.79874,23.6661],[-106.79563,23.67002],[-106.79571,23.6832],[-106.81982,23.7148],[-106.847,23.74009],[-106.8444,23.7426],[-106.8441,23.75395],[-106.86193,23.77435],[-106.74006,23.78929],[-106.73794,23.80063],[-106.74289,23.80264],[-106.73742,23.83318],[-106.73171,23.83442],[-106.73564,23.85332],[-106.68554,23.89358],[-106.67055,23.91957],[-106.69042,23.94913],[-106.69657,23.95036],[-106.70315,23.94488],[-106.70892,23.95798],[-106.71524,23.96198],[-106.71249,23.96621],[-106.70407,23.95761],[-106.69106,23.9609],[-106.68527,23.99754],[-106.6799,24.01269],[-106.6754,24.01712],[-106.68006,24.0234],[-106.67786,24.03074],[-106.67064,24.03185],[-106.65474,24.04808],[-106.65929,24.05809],[-106.65487,24.06014],[-106.65378,24.06958],[-106.65869,24.0822],[-106.6748,24.09037],[-106.6806,24.1014],[-106.67764,24.10859],[-106.67876,24.11629],[-106.69571,24.12043],[-106.69629,24.12804],[-106.69067,24.12602],[-106.69197,24.12995],[-106.67547,24.13059],[-106.67524,24.13437],[-106.66815,24.13837],[-106.664,24.13489],[-106.66351,24.13814],[-106.6683,24.14244],[-106.66517,24.1455],[-106.66111,24.14429],[-106.6565,24.13675],[-106.64634,24.13802],[-106.6543,24.1512],[-106.64346,24.15997],[-106.63439,24.15602],[-106.63201,24.16017],[-106.63515,24.16817],[-106.62946,24.1709],[-106.63075,24.17599],[-106.62379,24.17893],[-106.62059,24.1848],[-106.62113,24.19142],[-106.61843,24.1942],[-106.62099,24.19945],[-106.60482,24.20696],[-106.60589,24.21118],[-106.61066,24.21356],[-106.60304,24.22095],[-106.61128,24.22093],[-106.61342,24.22786],[-106.60536,24.2349],[-106.60586,24.23771],[-106.57498,24.22974],[-106.56743,24.22507],[-106.56119,24.22638],[-106.55947,24.22404],[-106.552,24.22698],[-106.54879,24.22255],[-106.54804,24.22539],[-106.53575,24.22384],[-106.53201,24.22812],[-106.52601,24.2235],[-106.52439,24.22717],[-106.51743,24.22478],[-106.51402,24.22826],[-106.51044,24.22394],[-106.50742,24.22924],[-106.50403,24.22936],[-106.50509,24.23284],[-106.48521,24.23998],[-106.46312,24.23804],[-106.46286,24.26971],[-106.5083,24.29087],[-106.46965,24.27786],[-106.42947,24.28507],[-106.36754,24.30194],[-106.35262,24.31647],[-106.3441,24.34881],[-106.32785,24.36106],[-106.26887,24.37476],[-106.19441,24.35179],[-106.16998,24.33365],[-106.15254,24.33877]]]}},{"type":"Feature","properties":{"cve_ent":"25","cve_mun":"017","cvegeo":"25017","nombre":"Sinaloa"},"geometry":{"type":"Polygon","coordinates":[[[-107.99937,26.44845],[-108.0128,26.43905],[-107.97303,26.39253],[-107.97412,26.38863],[-107.85626,26.22604],[-107.85402,26.19652],[-107.83995,26.18294],[-107.82402,26.18411],[-107.82275,26.18763],[-107.81825,26.18345],[-107.81028,26.18368],[-107.80454,26.1748],[-107.78892,26.16861],[-107.78069,26.13694],[-107.75517,26.13451],[-107.74792,26.14349],[-107.7476,26.15379],[-107.73787,26.15695],[-107.73872,26.16724],[-107.72489,26.16317],[-107.71743,26.16474],[-107.71108,26.17441],[-107.70614,26.17007],[-107.69919,26.17074],[-107.69632,26.16547],[-107.65276,26.16364],[-107.63575,26.15458],[-107.62077,26.16265],[-107.59318,26.16604],[-107.58976,26.1698],[-107.5823,26.17065],[-107.57753,26.1647],[-107.56539,26.16464],[-107.55568,26.15962],[-107.55396,26.15175],[-107.54021,26.14235],[-107.54368,26.13732],[-107.53739,26.13766],[-107.53459,26.13094],[-107.52627,26.12775],[-107.52811,26.12138],[-107.52213,26.11182],[-107.52394,26.10723],[-107.52002,26.10423],[-107.52193,26.09145],[-107.52843,26.08535],[-107.52808,26.08112],[-107.51167,26.07748],[-107.51942,26.0682],[-107.52728,26.06708],[-107.54258,26.05722],[-107.54613,26.04616],[-107.53875,26.04894],[-107.53568,26.04125],[-107.5156,26.04004],[-107.51744,26.03037],[-107.50656,26.01953],[-107.49737,26.01797],[-107.48994,25.99975],[-107.50941,25.97979],[-107.53384,25.98129],[-107.60415,25.94295],[-107.59688,25.88997],[-107.60451,25.84028],[-107.64652,25.8123],[-107.69896,25.79515],[-107.67728,25.78258],[-107.68616,25.77473],[-107.71312,25.77246],[-107.72016,25.75946],[-107.73167,25.76099],[-107.73164,25.75581],[-107.7562,25.75023],[-107.75868,25.75326],[-107.76903,25.75345],[-107.77411,25.75015],[-107.77865,25.755],[-107.79097,25.75946],[-107.7944,25.75668],[-107.79294,25.75324],[-107.80139,25.74885],[-107.79512,25.73137],[-107.79929,25.72623],[-107.82581,25.73681],[-107.83534,25.7356],[-107.83892,25.72984],[-107.83777,25.72297],[-107.85755,25.71437],[-107.85369,25.69909],[-107.86414,25.69958],[-107.86611,25.6887],[-107.88454,25.68668],[-107.91466,25.66711],[-107.95384,25.6917],[-107.95784,25.68924],[-107.95748,25.68266],[-107.95002,25.66594],[-107.96261,25.65398],[-107.9844,25.64781],[-107.99082,25.65115],[-107.99446,25.63932],[-108.00379,25.63931],[-108.01718,25.64878],[-108.02716,25.65058],[-108.03444,25.63925],[-108.03925,25.61868],[-108.04676,25.60907],[-108.04826,25.59178],[-108.0548,25.58908],[-108.06077,25.58843],[-108.06849,25.59292],[-108.07127,25.5905],[-108.08358,25.60108],[-108.09313,25.60447],[-108.09371,25.59406],[-108.1177,25.5858],[-108.12041,25.60667],[-108.15812,25.60407],[-108.15868,25.60697],[-108.16347,25.60695],[-108.16355,25.60395],[-108.16733,25.60402],[-108.18053,25.61368],[-108.17864,25.61612],[-108.19434,25.63328],[-108.25121,25.64376],[-108.26215,25.65381],[-108.29845,25.66049],[-108.29768,25.6643],[-108.30981,25.67012],[-108.30183,25.67613],[-108.30967,25.68431],[-108.3119,25.68276],[-108.31359,25.69801],[-108.3117,25.69969],[-108.30494,25.6931],[-108.29874,25.69833],[-108.2944,25.69751],[-108.29946,25.71135],[-108.29196,25.71706],[-108.30555,25.73191],[-108.32983,25.75033],[-108.33472,25.75727],[-108.34198,25.74244],[-108.34803,25.74388],[-108.34773,25.75482],[-108.35958,25.7422],[-108.36072,25.73487],[-108.36461,25.73357],[-108.36649,25.76437],[-108.41835,25.76844],[-108.41868,25.78342],[-108.43728,25.79059],[-108.44682,25.74361],[-108.45571,25.74325],[-108.45789,25.7368],[-108.47516,25.73605],[-108.47557,25.74236],[-108.48295,25.74364],[-108.49146,25.7425],[-108.49161,25.73292],[-108.53039,25.73989],[-108.53002,25.73024],[-108.54059,25.72991],[-108.54022,25.72149],[-108.5508,25.72134],[-108.55029,25.70976],[-108.55714,25.71189],[-108.55771,25.70913],[-108.56239,25.7094],[-108.56268,25.70539],[-108.65509,25.70575],[-108.65503,25.70056],[-108.66325,25.70756],[-108.67504,25.69786],[-108.68931,25.70513],[-108.68249,25.71554],[-108.69108,25.72007],[-108.68666,25.72686],[-108.70305,25.73583],[-108.7063,25.7416],[-108.70459,25.78313],[-108.71342,25.78851],[-108.72049,25.78541],[-108.72047,25.79152],[-108.73185,25.79162],[-108.74836,25.81274],[-108.76481,25.85083],[-108.73841,25.85493],[-108.73042,25.86319],[-108.72428,25.86123],[-108.72489,25.85026],[-108.70494,25.84623],[-108.66747,25.85079],[-108.67091,25.87322],[-108.64991,25.88063],[-108.66431,25.89459],[-108.65712,25.91777],[-108.61503,25.92701],[-108.61395,25.97524],[-108.64785,25.97581],[-108.64512,25.99104],[-108.63298,26.02069],[-108.63179,26.03434],[-108.62859,26.02999],[-108.59979,26.0847],[-108.61702,26.10038],[-108.61432,26.10628],[-108.51582,26.0989],[-108.51348,26.11377],[-108.49743,26.11582],[-108.50349,26.14709],[-108.49236,26.14607],[-108.48778,26.13904],[-108.48484,26.14258],[-108.47765,26.12919],[-108.46548,26.15625],[-108.45535,26.15044],[-108.45261,26.14134],[-108.44776,26.14446],[-108.43953,26.1322],[-108.4437,26.12396],[-108.43046,26.11625],[-108.41521,26.11704],[-108.40821,26.13113],[-108.4153,26.14502],[-108.39777,26.16587],[-108.38128,26.16232],[-108.35439,26.20281],[-108.35772,26.21889],[-108.3199,26.22221],[-108.27559,26.24809],[-108.28534,26.26416],[-108.27321,26.27801],[-108.28266,26.29777],[-108.28601,26.29505],[-108.28511,26.3077],[-108.28095,26.30886],[-108.27906,26.3234],[-108.28457,26.34286],[-108.27221,26.36639],[-108.26262,26.36326],[-108.26259,26.38479],[-108.22055,26.37769],[-108.2145,26.364],[-108.20493,26.37402],[-108.18674,26.37366],[-108.19196,26.35646],[-108.19881,26.34854],[-108.20584,26.32246],[-108.22046,26.32477],[-108.21891,26.31054],[-108.21714,26.30689],[-108.18881,26.29402],[-108.18145,26.29259],[-108.17587,26.29514],[-108.16566,26.28382],[-108.15489,26.28638],[-108.158,26.29516],[-108.15464,26.30233],[-108.12801,26.29938],[-108.12307,26.30161],[-108.11147,26.29829],[-108.09772,26.31189],[-108.08538,26.30882],[-108.05312,26.31358],[-108.03088,26.33886],[-108.03661,26.3689],[-108.01391,26.39045],[-108.01939,26.44949],[-108.01434,26.45328],[-107.99937,26.44845]]]}},{"type":"Feature","properties":{"cve_ent":"25","cve_mun":"018","cvegeo":"25018","nombre":"Navolato"},"geometry":{"type":"Polygon","coordinates":[[[-107.73677,24.92545],[-107.68263,24.88968],[-107.60994,24.85557],[-107.61252,24.83161],[-107.59875,24.83143],[-107.59768,24.8226],[-107.58529,24.82251],[-107.58535,24.81456],[-107.5969,24.81558],[-107.59799,24.80997],[-107.58425,24.80914],[-107.58558,24.8012],[-107.56246,24.80462],[-107.56237,24.79911],[-107.55347,24.80163],[-107.55259,24.78955],[-107.54897,24.78295],[-107.54521,24.78466],[-107.54003,24.77032],[-107.51332,24.77132],[-107.51233,24.76147],[-107.51236,24.76976],[-107.50675,24.77188],[-107.50463,24.76758],[-107.48867,24.76074],[-107.47776,24.75287],[-107.47704,24.7447],[-107.474,24.74456],[-107.47402,24.71374],[-107.47137,24.71111],[-107.45297,24.71018],[-107.45288,24.69752],[-107.46117,24.69759],[-107.46172,24.68342],[-107.46897,24.6834],[-107.4663,24.67215],[-107.50365,24.67177],[-107.51375,24.6178],[-107.51383,24.59012],[-107.52368,24.59016],[-107.52368,24.57231],[-107.53351,24.57229],[-107.53363,24.53982],[-107.52826,24.53361],[-107.53773,24.52594],[-107.54003,24.51746],[-107.53649,24.45596],[-107.61729,24.41734],[-107.80048,24.52603],[-107.82846,24.52148],[-107.8309,24.53988],[-107.84366,24.55261],[-107.9848,24.63983],[-108.00292,24.65743],[-108.01893,24.68164],[-108.02147,24.72852],[-108.03732,24.75108],[-108.07143,24.78286],[-108.03463,24.80789],[-108.02189,24.84238],[-108.00922,24.84517],[-108.00421,24.84994],[-108.00804,24.8654],[-108.02503,24.89338],[-108.02435,24.91382],[-108.00951,24.92264],[-107.9885,24.96735],[-107.97318,24.97823],[-107.97117,24.97452],[-107.97547,24.96979],[-107.96953,24.97181],[-107.9637,24.96841],[-107.96778,24.97652],[-107.92428,24.97827],[-107.92008,24.97006],[-107.91523,24.96922],[-107.91367,24.98003],[-107.90947,24.97892],[-107.89448,25.03334],[-107.88441,25.03319],[-107.88892,25.02058],[-107.84065,25.03215],[-107.82716,25.00762],[-107.8173,25.00447],[-107.80846,24.9796],[-107.79965,24.96635],[-107.79191,24.96303],[-107.79894,24.95443],[-107.79073,24.94951],[-107.78357,24.94982],[-107.78115,24.94567],[-107.77809,24.95159],[-107.77035,24.94832],[-107.76652,24.95202],[-107.76576,24.94625],[-107.75826,24.94713],[-107.75673,24.9417],[-107.76019,24.93585],[-107.74444,24.93682],[-107.73677,24.92545]]]}}]}